geo_id,deped_id,school_name,address,adm0,adm1,adm2,adm3,longitude,latitude
CRI-000000,100677,OJO DE AGUA,,CRI,Provincia San JosÃ©,Aserri,Vuelta de Jorco,-84.12333007749314,9.80187957623517
CRI-000001,100678,AGUA BLANCA,,CRI,Provincia San JosÃ©,Acosta,San Ignacio,-84.18296547817928,9.81068075375681
CRI-000002,100679,LINDA VISTA,,CRI,Provincia Cartago,La Union,RÃ­o Azul,-84.02563378372629,9.884689082719197
CRI-000003,100680,FINCA CAPRI,,CRI,Provincia San JosÃ©,Desamparados,San Miguel,-84.06029511683408,9.866629431819137
CRI-000004,100681,SAUREZ,,CRI,Provincia San JosÃ©,Aserri,AserrÃ­,-84.09783142681358,9.85275790346139
CRI-000005,100682,SAN RAFAEL,,CRI,Provincia San JosÃ©,Desamparados,San Rafael Arriba,-84.07689147111088,9.885431464903764
CRI-000006,100692,MARTIN MORA ROJAS,,CRI,Provincia San JosÃ©,Desamparados,Frailes,-84.08455654991664,9.753318756663235
CRI-000007,100693,JOSE TRINIDAD MORA VALVERDE,,CRI,Provincia San JosÃ©,Desamparados,Desamparados,-84.07156514572083,9.892429570101438
CRI-000008,100694,CANGREJAL,,CRI,Provincia San JosÃ©,Acosta,Cangrejal,-84.21880774507508,9.764007815365215
CRI-000009,100695,CARAGRAL,,CRI,Provincia San JosÃ©,Acosta,Palmichal,-84.14863165774099,9.824739805286432
CRI-000010,100697,CEIBA ALTA,,CRI,Provincia San JosÃ©,Aserri,Cangrejal,-84.15687952217688,9.75793758513744
CRI-000011,100698,JOSE ANGEL PADILLA SOLIS,,CRI,Provincia San JosÃ©,Desamparados,San CristÃ³bal,-84.00071123805726,9.747643048380334
CRI-000012,100700,ISABEL LA CATOLICA,,CRI,Provincia San JosÃ©,Acosta,Guaitil,-84.25529138186737,9.778300104624204
CRI-000013,100701,LAGUNILLAS,,CRI,Provincia San JosÃ©,Acosta,Guaitil,-84.19732598332375,9.81574518589746
CRI-000014,100702,MANUEL HIDALGO MORA,,CRI,Provincia San JosÃ©,Aserri,AserrÃ­,-84.09354187932021,9.862598249083124
CRI-000015,100703,SANTA TERESITA,,CRI,Provincia San JosÃ©,Aserri,Salitrillos,-84.0833275880398,9.863861271023213
CRI-000016,100705,JOAQUIN GARCIA MONGE,,CRI,Provincia San JosÃ©,Desamparados,Desamparados,-84.06588878951402,9.899330985001793
CRI-000017,100711,CECILIO PIEDRA GUTIERREZ,,CRI,Provincia San JosÃ©,Desamparados,Frailes,-84.05515637324453,9.751023832903178
CRI-000018,100712,LEANDRO FONSECA NARANJO,,CRI,Provincia San JosÃ©,Desamparados,Rosario,-84.07696397837181,9.80381989783895
CRI-000019,100713,GUAITIL,,CRI,Provincia San JosÃ©,Acosta,Guaitil,-84.23195256151595,9.791763814697777
CRI-000020,100720,CEIBA BAJA,,CRI,Provincia San JosÃ©,Acosta,Cangrejal,-84.19404444592863,9.764016534755214
CRI-000021,100721,CEIBA ESTE,,CRI,Provincia San JosÃ©,Acosta,Cangrejal,-84.17050894357526,9.75634095669225
CRI-000022,100726,CHIROGRES,,CRI,Provincia San JosÃ©,Desamparados,Rosario,-84.08556149513709,9.80679099535575
CRI-000023,100728,LA PALMA,,CRI,Provincia San JosÃ©,Acosta,Sabanillas,-84.24279388477404,9.750831814955303
CRI-000024,100731,LAS GRAVILIAS,,CRI,Provincia San JosÃ©,Desamparados,Gravilias,-84.05924188316543,9.89553610955825
CRI-000025,100734,LLANO BONITO,,CRI,Provincia San JosÃ©,Acosta,Cangrejal,-84.2062009829573,9.755185425274732
CRI-000026,100735,MANUEL PADILLA URENA,,CRI,Provincia Cartago,Cartago,Corralillo,-84.07193602133458,9.775808975483702
CRI-000027,100736,FLORIA ZELEDON TREJOS,,CRI,Provincia San JosÃ©,Aserri,Vuelta de Jorco,-84.12609779476279,9.781386209445028
CRI-000028,100737,BRAULIO ODIO HERRERA,,CRI,Provincia San JosÃ©,Aserri,Monterrey,-84.10818465594474,9.756599335619388
CRI-000029,100738,NARANJAL,,CRI,Provincia San JosÃ©,Acosta,Cangrejal,-84.22549317878305,9.747011631792692
CRI-000030,100739,BRAULIO CASTRO CHACON,,CRI,Provincia San JosÃ©,Acosta,Guaitil,-84.19729421019899,9.806641166084212
CRI-000031,100740,PARRITA,,CRI,Provincia San JosÃ©,Aserri,Legua,-84.13589013809272,9.691796701026616
CRI-000032,100743,JUAN MONGE GUILLEN,,CRI,Provincia San JosÃ©,Desamparados,PatarrÃ¡,-84.03522334555753,9.882280570803411
CRI-000033,100745,ANDRES CORRALES MORA,,CRI,Provincia San JosÃ©,Aserri,AserrÃ­,-84.10108515104616,9.872305455296248
CRI-000034,100746,PRAGA,,CRI,Provincia San JosÃ©,Aserri,Tarbaca,-84.11059375403067,9.819289684509492
CRI-000035,100747,REPUBLICA FEDERAL DE ALEMANIA,,CRI,Provincia San JosÃ©,Desamparados,PatarrÃ¡,-84.02319163126919,9.87571378162011
CRI-000036,100748,FRANCISCO GAMBOA MORA,,CRI,Provincia Cartago,La Union,RÃ­o Azul,-84.03412530870823,9.89082901941598
CRI-000037,100752,LA FILA,,CRI,Provincia San JosÃ©,Aserri,San Gabriel,-84.09592243991801,9.78839291432333
CRI-000038,100753,MATIAS CAMACHO CASTRO,,CRI,Provincia San JosÃ©,Acosta,Sabanillas,-84.26985918398069,9.738626997518631
CRI-000039,100757,GABRIEL BRENES ROBLES,,CRI,Provincia San JosÃ©,Aserri,San Gabriel,-84.1056397004049,9.787694582337124
CRI-000040,100758,CRISTOBAL COLON,,CRI,Provincia San JosÃ©,Acosta,San Ignacio,-84.16257507836093,9.79924642831364
CRI-000041,100762,SOLEDAD,,CRI,Provincia San JosÃ©,Acosta,Sabanillas,-84.25215093202301,9.72936856350854
CRI-000042,100763,SAN LUIS,,CRI,Provincia San JosÃ©,Acosta,San Ignacio,-84.16685523377406,9.79227667205186
CRI-000043,100764,REPUBLICA DE HONDURAS,,CRI,Provincia San JosÃ©,Desamparados,San Miguel,-84.06221376331686,9.871505493545085
CRI-000044,100766,ELIAS JIMENEZ CASTRO,,CRI,Provincia San JosÃ©,Desamparados,San Rafael Abajo,-84.08111912398304,9.89342507773898
CRI-000045,100770,DR. MARIANO FIGUERES FORGES,,CRI,Provincia Cartago,Desamparados,Corralillo,-84.05402569983916,9.766820941422678
CRI-000046,100771,SEVILLA,,CRI,Provincia San JosÃ©,Acosta,Palmichal,-84.18982864789449,9.821896058712257
CRI-000047,100772,MANUEL ORTUNO BOUTIN,,CRI,Provincia San JosÃ©,Desamparados,San Rafael Arriba,-84.07538471004038,9.874357953506417
CRI-000048,100774,SANTA MARTA,,CRI,Provincia San JosÃ©,Aserri,Vuelta de Jorco,-84.15266328624293,9.777460251292167
CRI-000049,100775,TERUEL,,CRI,Provincia San JosÃ©,Acosta,Sabanillas,-84.2919967110048,9.740593835676075
CRI-000050,100776,TIQUIRITOS,,CRI,Provincia San JosÃ©,Acosta,Sabanillas,-84.23958900829754,9.710643094332264
CRI-000051,100777,PAQUITA FERRER DE FIGUERES,,CRI,Provincia Cartago,Cartago,Corralillo,-84.06973750358955,9.797812112190945
CRI-000052,100778,JUSTO MARIA PADILLA CASTRO,,CRI,Provincia Cartago,Cartago,Corralillo,-84.06725374971384,9.790318070955399
CRI-000053,100779,TOLEDO,,CRI,Provincia San JosÃ©,Acosta,Guaitil,-84.24361097362879,9.800173933661783
CRI-000054,100780,LAS GRAVILIAS,,CRI,Provincia San JosÃ©,Acosta,Cangrejal,-84.16499369073956,9.747444661899955
CRI-000055,100781,FERNANDO DE ARAGON,,CRI,Provincia San JosÃ©,Acosta,San Ignacio,-84.17096964815183,9.79841163492616
CRI-000056,100782,ALEJANDRO RODRIGUEZ RODRIGUEZ,,CRI,Provincia San JosÃ©,Aserri,Vuelta de Jorco,-84.13024579195682,9.796532951375292
CRI-000057,100784,ZONCUANO,,CRI,Provincia San JosÃ©,Acosta,Sabanillas,-84.23691060990542,9.684716313513686
CRI-000058,100785,CASPIROLA,,CRI,Provincia San JosÃ©,Acosta,Sabanillas,-84.2773929034355,9.67740633652159
CRI-000059,100786,LAS VEGAS,,CRI,Provincia San JosÃ©,Acosta,Sabanillas,-84.26358672200048,9.655812775959333
CRI-000060,100788,TABLAZO,,CRI,Provincia San JosÃ©,Acosta,San Ignacio,-84.15015748228552,9.80661477792888
CRI-000061,100789,GUATUSO,,CRI,Provincia San JosÃ©,Desamparados,PatarrÃ¡,-84.0358577459877,9.868937432040768
CRI-000062,100792,DOS CERCAS,,CRI,Provincia San JosÃ©,Desamparados,Damas,-84.04509125647392,9.892700988179707
CRI-000063,100797,LLANO BONITO,,CRI,Provincia San JosÃ©,Desamparados,Rosario,-84.0717425221695,9.82311153347678
CRI-000064,100802,SECTOR SIETE,,CRI,Provincia San JosÃ©,Desamparados,Los Guido,-84.04963316790517,9.866659773065056
CRI-000065,100804,SAN FRANCISCO,,CRI,Provincia San JosÃ©,Puriscal,Santiago,-84.32635574180689,9.846790998708547
CRI-000066,100805,COLONIA GAMALOTILLO,,CRI,Provincia San JosÃ©,Puriscal,Chires,-84.45795104501754,9.605359906505177
CRI-000067,100807,BAJO LOS MURILLO,,CRI,Provincia San JosÃ©,Puriscal,Mercedes Sur,-84.34180122185089,9.833573552399832
CRI-000068,100808,LOS ALTOS,,CRI,Provincia San JosÃ©,Mora,ColÃ³n,-84.2227359523011,9.89994544244409
CRI-000069,100809,BAJO LOAIZA,,CRI,Provincia San JosÃ©,Mora,Tabarcia,-84.25131200465849,9.82288462916324
CRI-000070,100811,SANTA CECILIA,,CRI,Provincia San JosÃ©,Puriscal,San Rafael,-84.30067283543809,9.843291897960276
CRI-000071,100812,ROBERTO LOPEZ VARELA,,CRI,Provincia San JosÃ©,Puriscal,Barbacoas,-84.34962239232001,9.856960807423508
CRI-000072,100813,JUNQUILLO ARRIBA,,CRI,Provincia San JosÃ©,Puriscal,Mercedes Sur,-84.31903055159235,9.835055603212146
CRI-000073,100814,BELLA VISTA,,CRI,Provincia San JosÃ©,Puriscal,San Rafael,-84.28954927630743,9.83099024013643
CRI-000074,100815,COLONIA SAN FRANCISCO,,CRI,Provincia San JosÃ©,Turrubares,San Luis,-84.4794988918276,9.863114372890232
CRI-000075,100817,BRASIL DE MORA,,CRI,Provincia San JosÃ©,Mora,ColÃ³n,-84.23243325544288,9.931657519079206
CRI-000076,100819,JUNQUILLO ABAJO,,CRI,Provincia San JosÃ©,Puriscal,Santiago,-84.31029260679517,9.841690455885997
CRI-000077,100820,CANALES ARRIBA,,CRI,Provincia San JosÃ©,Puriscal,Santiago,-84.30776436174301,9.823164024574481
CRI-000078,100821,CANDELARITA,,CRI,Provincia San JosÃ©,Puriscal,Candelarita,-84.33758704355003,9.795438829972213
CRI-000079,100822,JUAN LUIS GARCIA GONZALEZ,,CRI,Provincia San JosÃ©,Puriscal,Santiago,-84.33087957883657,9.861801661941232
CRI-000080,100824,CERBATANA,,CRI,Provincia San JosÃ©,Puriscal,Mercedes Sur,-84.32943739919821,9.825994862357257
CRI-000081,100827,COLONIA PASO AGRES,,CRI,Provincia San JosÃ©,Turrubares,San Juan de Mata,-84.5111884050016,9.881023847458414
CRI-000082,100828,LLANO GRANDE,,CRI,Provincia San JosÃ©,Puriscal,Mercedes Sur,-84.43585621599219,9.727218502797879
CRI-000083,100829,LLANO HERMOSO,,CRI,Provincia San JosÃ©,Puriscal,Mercedes Sur,-84.4242753632199,9.82757128911539
CRI-000084,100832,CORTEZAL,,CRI,Provincia San JosÃ©,Puriscal,Barbacoas,-84.3600146674388,9.850444586574849
CRI-000085,100833,JOSE SALAZAR ZUNIGA,,CRI,Provincia San JosÃ©,Turrubares,Carara,-84.56767973012994,9.72748421039965
CRI-000086,100834,GRIFO ALTO,,CRI,Provincia San JosÃ©,Puriscal,Grifo Alto,-84.38913677288949,9.878072578606043
CRI-000087,100835,GRIFO BAJO,,CRI,Provincia San JosÃ©,Puriscal,Grifo Alto,-84.38091480277232,9.890738351680305
CRI-000088,100837,EL SUR,,CRI,Provincia San JosÃ©,Turrubares,Carara,-84.52354080141413,9.740307923920094
CRI-000089,100838,TUFARES,,CRI,Provincia San JosÃ©,Puriscal,Mercedes Sur,-84.38240235515501,9.754704578159924
CRI-000090,100839,REPUBLICA DE PARAGUAY,,CRI,Provincia San JosÃ©,Puriscal,Desamparaditos,-84.34060592593835,9.877561609147548
CRI-000091,100844,FLORALIA,,CRI,Provincia San JosÃ©,Puriscal,San Rafael,-84.27710681906696,9.816813090571802
CRI-000092,100845,GAMALOTILLO,,CRI,Provincia San JosÃ©,Puriscal,Chires,-84.44258147331296,9.608819673953816
CRI-000093,100846,GUARUMAL,,CRI,Provincia San JosÃ©,Puriscal,Chires,-84.4214476403554,9.685651323056112
CRI-000094,100847,JACINTO MORA GOMEZ,,CRI,Provincia San JosÃ©,Mora,Guayabo,-84.26233544409838,9.859866446395023
CRI-000095,100849,JILGUERAL,,CRI,Provincia San JosÃ©,Puriscal,Mercedes Sur,-84.40609617663877,9.800775615557944
CRI-000096,100850,BOCANA,,CRI,Provincia San JosÃ©,Puriscal,Mercedes Sur,-84.36834896893434,9.775490426563149
CRI-000097,100859,POTENCIANA ARRIBA,,CRI,Provincia San JosÃ©,Turrubares,San Luis,-84.45155513357969,9.802047992553405
CRI-000098,100862,LAS DELICIAS,,CRI,Provincia San JosÃ©,Turrubares,Carara,-84.51863611435293,9.71256435131641
CRI-000099,100863,LLANO GRANDE,,CRI,Provincia San JosÃ©,Mora,Picagres,-84.35667305408091,9.890412591473295
CRI-000100,100865,RAFAEL SOLORZANO SABORIO,,CRI,Provincia San JosÃ©,Puriscal,Chires,-84.4206874143619,9.644859814511634
CRI-000101,100867,MASTATAL,,CRI,Provincia San JosÃ©,Puriscal,Chires,-84.37440710482292,9.671043026049311
CRI-000102,100868,MAURO FERNANDEZ ACUNA,,CRI,Provincia San JosÃ©,Turrubares,San Juan de Mata,-84.5262155423732,9.871691320336474
CRI-000103,100869,MERCEDES NORTE,,CRI,Provincia San JosÃ©,Puriscal,Mercedes Sur,-84.32693248019822,9.836300979905335
CRI-000104,100871,MONTELIMAR,,CRI,Provincia San JosÃ©,Turrubares,Carara,-84.50915761852825,9.622964816884622
CRI-000105,100873,MORADO,,CRI,Provincia San JosÃ©,Mora,Tabarcia,-84.24507627622525,9.857860102407857
CRI-000106,100874,PALMICHAL DE ACOSTA,,CRI,Provincia San JosÃ©,Acosta,Palmichal,-84.20382944478544,9.837973119620123
CRI-000107,100875,PEDERNAL,,CRI,Provincia San JosÃ©,Puriscal,Candelarita,-84.32716957168331,9.810261790821356
CRI-000108,100876,LUIS MONGE MADRIGAL,,CRI,Provincia San JosÃ©,Mora,Picagres,-84.34574353313016,9.904687582072745
CRI-000109,100877,NAZARIO VALVERDE JIMENEZ,,CRI,Provincia San JosÃ©,Puriscal,Barbacoas,-84.36289137456399,9.865794097718261
CRI-000110,100881,PURIRES,,CRI,Provincia San JosÃ©,Turrubares,San Pablo,-84.41754057699961,9.908126110327448
CRI-000111,100882,QUEBRADA AZUL,,CRI,Provincia San JosÃ©,Turrubares,San Luis,-84.44923227344631,9.838031488780073
CRI-000112,100883,QUEBRADA HONDA,,CRI,Provincia San JosÃ©,Puriscal,Mercedes Sur,-84.44924151136053,9.720120114175216
CRI-000113,100885,JOSE ROJAS ALPIZAR,,CRI,Provincia San JosÃ©,Puriscal,San Antonio,-84.28127053300885,9.847266372538423
CRI-000114,100887,SALAZAR,,CRI,Provincia San JosÃ©,Puriscal,Santiago,-84.29281864794254,9.804386213937772
CRI-000115,100888,ANICETO JIMENEZ BARBOZA,,CRI,Provincia San JosÃ©,Puriscal,Mercedes Sur,-84.39954139463914,9.76623954182097
CRI-000116,100890,SAN ANTONIO,,CRI,Provincia San JosÃ©,Turrubares,Carara,-84.48295898207175,9.595915707166679
CRI-000117,100891,SAN ISIDRO,,CRI,Provincia San JosÃ©,Turrubares,Carara,-84.4994725125819,9.606600639902062
CRI-000118,100892,MIXTA DE SAN JUAN,,CRI,Provincia San JosÃ©,Puriscal,Barbacoas,-84.343036793578,9.843368932666833
CRI-000119,100893,SAN MIGUEL,,CRI,Provincia San JosÃ©,Puriscal,Chires,-84.37514610376284,9.647786237238982
CRI-000120,100894,SAN PABLO,,CRI,Provincia San JosÃ©,Turrubares,San Pablo,-84.44076052565215,9.90829069904142
CRI-000121,100895,DR. CLODOMIRO PICADO TWIGHT,,CRI,Provincia San JosÃ©,Turrubares,San Pedro,-84.44691636327897,9.875225045982667
CRI-000122,100896,SAN RAFAEL,,CRI,Provincia San JosÃ©,Turrubares,San Luis,-84.46669767456054,9.81201153462647
CRI-000123,100898,ROSARIO SALAZAR MARIN,,CRI,Provincia San JosÃ©,Puriscal,San Rafael,-84.2890128595943,9.839600839085136
CRI-000124,100899,SAN VICENTE,,CRI,Provincia San JosÃ©,Puriscal,Chires,-84.3980150918413,9.672845314714202
CRI-000125,100900,SANTA MARTA,,CRI,Provincia San JosÃ©,Puriscal,Mercedes Sur,-84.38547849683331,9.813607248243683
CRI-000126,100901,DARIO FLORES HERNANDEZ,,CRI,Provincia San JosÃ©,Puriscal,Santiago,-84.31379561373953,9.84486642854788
CRI-000127,100902,RAMON BEDOYA MONGE,,CRI,Provincia San JosÃ©,Puriscal,San Antonio,-84.29953837456296,9.856877806997687
CRI-000128,100903,SAN GABRIEL,,CRI,Provincia San JosÃ©,Turrubares,Carara,-84.49930028412123,9.676908567252246
CRI-000129,100904,FILA NEGRA,,CRI,Provincia San JosÃ©,Turrubares,Carara,-84.55427867760905,9.645879922544022
CRI-000130,100905,LISIMACO CHAVARRIA PALMA,,CRI,Provincia San JosÃ©,Mora,Tabarcia,-84.2343729255529,9.846612154371254
CRI-000131,100906,SAN PABLO DE PALMICHAL,,CRI,Provincia San JosÃ©,Acosta,Palmichal,-84.18585681441228,9.838562345255978
CRI-000132,100907,VISTA DE MAR,,CRI,Provincia San JosÃ©,Puriscal,Chires,-84.41585968972527,9.601693671955214
CRI-000133,100910,ARENAL,,CRI,Provincia San JosÃ©,Puriscal,Chires,-84.42070982391856,9.644876774019133
CRI-000134,100911,SAN LUIS,,CRI,Provincia San JosÃ©,Turrubares,San Luis,-84.45649249300567,9.850176584606002
CRI-000135,100914,BAJO BURGOS,,CRI,Provincia San JosÃ©,Puriscal,Barbacoas,-84.34745656494277,9.866437825287024
CRI-000136,100915,NARANJAL,,CRI,Provincia San JosÃ©,Puriscal,Chires,-84.4515742735522,9.680713038116854
CRI-000137,101270,MIGUEL HIDALGO BASTOS,,CRI,Provincia Alajuela,Alajuela,RÃ­o Segundo,-84.17444777369349,10.01007629863188
CRI-000138,101273,GUADALAJARA,,CRI,Provincia Alajuela,Alajuela,San JosÃ©,-84.22329521276876,10.020903127536073
CRI-000139,101274,ALTO LOPEZ,,CRI,Provincia Alajuela,Atenas,San JosÃ©,-84.39701075655907,10.006894819432125
CRI-000140,101277,JOSE MIGUEL ZUMBADO SOTO,,CRI,Provincia Alajuela,Poas,Carrillos,-84.26483464771894,10.036270211209041
CRI-000141,101278,ALTOS DE NARANJO,,CRI,Provincia Alajuela,Atenas,San Isidro,-84.43904549785407,10.002291213820513
CRI-000142,101280,EL ACHIOTE,,CRI,Provincia Alajuela,Grecia,San Isidro,-84.28058153723772,10.0961153709498
CRI-000143,101281,LAGOS DEL COYOL,,CRI,Provincia Alajuela,Alajuela,La Garita,-84.30391725324131,9.99081621422835
CRI-000144,101283,LA LAGUNA,,CRI,Provincia Alajuela,Alajuela,San Isidro,-84.19090707570668,10.12693697715732
CRI-000145,101286,CALLE LILES,,CRI,Provincia Alajuela,Poas,San Rafael,-84.24340040356311,10.11529576990438
CRI-000146,101287,BARROETA,,CRI,Provincia Alajuela,Atenas,JesÃºs,-84.45765279513445,9.944287711565623
CRI-000147,101288,BARTOLOME ANDROVETTO GARELLO,,CRI,Provincia Alajuela,San Mateo,Desmonte,-84.46949438235464,9.959010970547974
CRI-000148,101289,BERNARDO SOTO ALFARO,,CRI,Provincia Alajuela,Alajuela,Alajuela,-84.21156977607139,10.01725808807702
CRI-000149,101290,GUADALUPE,,CRI,Provincia Alajuela,Alajuela,Alajuela,-84.18797020217798,10.047502818338515
CRI-000150,101295,MANUEL FRANCISCO CARRILLO SABORIO,,CRI,Provincia Alajuela,Alajuela,Alajuela,-84.2035053453213,10.030579661408229
CRI-000151,101296,JACINTO PANIAGUA RODRIGUEZ,,CRI,Provincia Alajuela,Grecia,San Roque,-84.28483885958556,10.117425083979416
CRI-000152,101297,ASCENSION ESQUIVEL IBARRA,,CRI,Provincia Alajuela,Alajuela,Alajuela,-84.21112794456731,10.019213977751987
CRI-000153,101302,LA CATALUNA,,CRI,Provincia Alajuela,Grecia,Tacares,-84.3117925018628,10.028511049530184
CRI-000154,101303,VICTOR ARGUELLO MURILLO,,CRI,Provincia Alajuela,Alajuela,TurrÃºcares,-84.34421286123562,9.955610628557926
CRI-000155,101304,CENTRAL DE ATENAS,,CRI,Provincia Alajuela,Atenas,Atenas,-84.38074856300602,9.975610177684894
CRI-000156,101313,ARTURO QUIROS CARRANZA,,CRI,Provincia Alajuela,Orotina,Coyolar,-84.56073361455768,9.891316477330447
CRI-000157,101316,I.M.A.S.,,CRI,Provincia Alajuela,Poas,San Pedro,-84.25245034564645,10.075622369261092
CRI-000158,101317,MARIO AGUERO GONZALEZ,,CRI,Provincia Alajuela,Alajuela,San Isidro,-84.1853202707465,10.096839493818146
CRI-000159,101319,FRAIJANES,,CRI,Provincia Alajuela,Alajuela,Sabanilla,-84.19397057869179,10.147761248536927
CRI-000160,101320,CARBONAL,,CRI,Provincia Alajuela,Alajuela,San Isidro,-84.20424306790004,10.038923001446955
CRI-000161,101321,PAVAS,,CRI,Provincia Alajuela,Atenas,San Isidro,-84.4305319591329,9.989815017695493
CRI-000162,101322,POASITO,,CRI,Provincia Alajuela,Alajuela,Sabanilla,-84.19406172497065,10.164389157624878
CRI-000163,101323,DESAMPARADOS,,CRI,Provincia Alajuela,San Mateo,San Mateo,-84.50685161130481,9.94726291164691
CRI-000164,101324,MANUELA SANTAMARIA,,CRI,Provincia Alajuela,Alajuela,Desamparados,-84.18867141245931,10.022366689672156
CRI-000165,101325,DULCE NOMBRE,,CRI,Provincia Alajuela,San Mateo,San Mateo,-84.52394347836291,9.985314533837458
CRI-000166,101326,SILVIA MONTERO ZAMORA,,CRI,Provincia Alajuela,Alajuela,San Isidro,-84.19112732940768,10.11040984757907
CRI-000167,101335,TOMAS SANDOVAL,,CRI,Provincia Alajuela,Atenas,,-84.43307652466532,9.93453097209163
CRI-000168,101337,EULOGIA RUIZ RUIZ,,CRI,Provincia Alajuela,Grecia,Grecia,-84.30768321422066,10.074510904470655
CRI-000169,101340,HACIENDA VIEJA,,CRI,Provincia Alajuela,Orotina,Hacienda Vieja,-84.49984567336811,9.920352567072522
CRI-000170,101341,ITIQUIS,,CRI,Provincia Alajuela,Alajuela,San Isidro,-84.208735360978,10.047150524926582
CRI-000171,101351,LA BALSA,,CRI,Provincia Alajuela,Atenas,ConcepciÃ³n,-84.37974699019888,9.942529728550191
CRI-000172,101355,ENRIQUE RIBA MORELLA,,CRI,Provincia Alajuela,Alajuela,San Isidro,-84.19949764160395,10.059009287226461
CRI-000173,101358,MADERAL,,CRI,Provincia Alajuela,San Mateo,San Mateo,-84.51075126334031,9.967765303203324
CRI-000174,101360,MONSENOR SANABRIA MARTINEZ,,CRI,Provincia Alajuela,Atenas,Mercedes,-84.40273244187176,9.987834814977603
CRI-000175,101361,MIGUEL OBREGON LIZANO,,CRI,Provincia Alajuela,Alajuela,Alajuela,-84.21288284737022,10.015621629883949
CRI-000176,101362,MAURILIO SOTO ALFARO,,CRI,Provincia Alajuela,Alajuela,Alajuela,-84.22695188417885,10.006683761748093
CRI-000177,101364,ONCE DE ABRIL,,CRI,Provincia Alajuela,Alajuela,GuÃ¡cima,-84.26287875290521,9.94598493331588
CRI-000178,101369,QUEBRADAS,,CRI,Provincia Alajuela,Alajuela,Tambor,-84.24495443436743,10.041816354740407
CRI-000179,101370,RAMADAS,,CRI,Provincia Alajuela,San Mateo,San Mateo,-84.5492570207498,9.945084076248547
CRI-000180,101377,ERMIDA BLANCO GONZALEZ,,CRI,Provincia Alajuela,Alajuela,Sabanilla,-84.2088267701078,10.084927153351304
CRI-000181,101380,MONSENOR DELFIN QUESADA CASTRO,,CRI,Provincia Alajuela,Poas,Sabana Redonda,-84.21565052598979,10.11344194730449
CRI-000182,101381,LUIS FELIPE GONZALEZ FLORES,,CRI,Provincia Alajuela,Alajuela,Sabanilla,-84.21624795773987,10.074895059418624
CRI-000183,101383,ALBERTO ECHANDI MONTERO,,CRI,Provincia Alajuela,Alajuela,San Isidro,-84.19287580410061,10.080762430772136
CRI-000184,101384,SAN ISIDRO,,CRI,Provincia Alajuela,Atenas,San Isidro,-84.42193651763922,9.991783790375088
CRI-000185,101391,SAN LUIS,,CRI,Provincia Alajuela,Grecia,BolÃ­var,-84.30563348720872,10.131070350340673
CRI-000186,101393,SAN MIGUEL ABAJO,,CRI,Provincia Alajuela,Grecia,San Roque,-84.29310146821093,10.118620720625964
CRI-000187,101394,PEDRO AGUIRRE CERDA,,CRI,Provincia Alajuela,Poas,San Pedro,-84.24605724542725,10.07591771406737
CRI-000188,101395,LUIS RODRIGUEZ SALAS,,CRI,Provincia Alajuela,Poas,San Rafael,-84.25641381334025,10.090968181309245
CRI-000189,101397,ALICE MOYA RODRIGUEZ,,CRI,Provincia Alajuela,Grecia,San Roque,-84.30190644723389,10.09537844873711
CRI-000190,101398,OTTO KOPPER STEFFENS,,CRI,Provincia Alajuela,Grecia,Grecia,-84.30181599045395,10.06737910922498
CRI-000191,101399,SANTA ELENA,,CRI,Provincia Alajuela,Grecia,San Isidro,-84.27198045244431,10.115055903751362
CRI-000192,101400,SANTA EULALIA,,CRI,Provincia Alajuela,Atenas,Santa Eulalia,-84.37464296458832,10.010652931101163
CRI-000193,101401,SANTA RITA,,CRI,Provincia Alajuela,Orotina,Coyolar,-84.59037402149752,9.869425712374753
CRI-000194,101402,SIMON BOLIVAR PALACIOS,,CRI,Provincia Alajuela,Grecia,Grecia,-84.310358588834,10.068580726481075
CRI-000195,101404,MIXTA DE SIQUIARES,,CRI,Provincia Alajuela,Alajuela,TurrÃºcares,-84.29476453194108,9.969003307739335
CRI-000196,101405,JULIA FERNANDEZ RODRIGUEZ,,CRI,Provincia Alajuela,Alajuela,San Rafael,-84.2143147221277,9.973734732661839
CRI-000197,101408,SANTA ROSA,,CRI,Provincia Alajuela,Poas,San Rafael,-84.2626639612277,10.105020466385238
CRI-000198,101409,LUIS SIBAJA GARCIA,,CRI,Provincia Alajuela,Alajuela,San Isidro,-84.21759329855097,10.049559721525513
CRI-000199,101411,DR. ADOLFO JIMENEZ DE LA GUARDIA,,CRI,Provincia Alajuela,Alajuela,Tambor,-84.24094353796465,10.03738665156353
CRI-000200,101412,TOBIAS GUZMAN BRENES,,CRI,Provincia Alajuela,San Mateo,San Mateo,-84.52209522080875,9.934905214669234
CRI-000201,101414,TURRUCARES,,CRI,Provincia Alajuela,Alajuela,TurrÃºcares,-84.31775849938387,9.95935134709385
CRI-000202,101416,CINCO ESQUINAS,,CRI,Provincia Alajuela,Alajuela,Carrizal,-84.16832106646369,10.103237919770375
CRI-000203,101419,INVU LAS CANAS,,CRI,Provincia Alajuela,Alajuela,Desamparados,-84.20318827281042,10.00909104232339
CRI-000204,101422,SAN FRANCISCO,,CRI,Provincia Alajuela,Grecia,San Isidro,-84.26445738044737,10.129859816618017
CRI-000205,101423,TUETAL SUR,,CRI,Provincia Alajuela,Alajuela,San JosÃ©,-84.23224047634547,10.02725602489167
CRI-000206,101425,UNION DE ROSALES,,CRI,Provincia Alajuela,Alajuela,Desamparados,-84.17285076121934,10.036750106013914
CRI-000207,101429,ALFONSO MONGE RAMIREZ,,CRI,Provincia Alajuela,Naranjo,Naranjo,-84.3701741525766,10.085222964380518
CRI-000208,101430,SAN JORGE LAS ROCAS,,CRI,Provincia Alajuela,San Ramon,San Lorenzo,-84.58891522718203,10.310385452949484
CRI-000209,101432,SAN BOSCO,,CRI,Provincia Alajuela,San Ramon,Piedades Sur,-84.52724282328684,10.125161140291347
CRI-000210,101433,BARRIO EL CARMEN,,CRI,Provincia Alajuela,Naranjo,Naranjo,-84.37930896674162,10.104373560780452
CRI-000211,101434,SAN RAFAEL,,CRI,Provincia Alajuela,Sarchi,SarchÃ­ Norte,-84.3520615364682,10.081427430188459
CRI-000212,101435,ANGELES NORTE,,CRI,Provincia Alajuela,San Ramon,Ãngeles,-84.48558196521486,10.148781505165577
CRI-000213,101436,FELIX ANGEL SALAS CABEZAS,,CRI,Provincia Alajuela,San Ramon,Ãngeles,-84.47529256857429,10.133261457401726
CRI-000214,101437,EL CARMEN,,CRI,Provincia Alajuela,San Ramon,Piedades Sur,-84.54959901800785,10.105608199583944
CRI-000215,101438,ARNULFO ARIAS MADRID,,CRI,Provincia Alajuela,Zarcero,Tapesco,-84.40234649142903,10.218073684726845
CRI-000216,101442,BALBOA,,CRI,Provincia Alajuela,San Ramon,Santiago,-84.49154922742945,10.037028654892719
CRI-000217,101444,PATA DE GALLO,,CRI,Provincia Alajuela,San Ramon,San Rafael,-84.45896080317492,10.00690341948701
CRI-000218,101447,FERNANDO CASTRO LOPEZ,,CRI,Provincia Alajuela,Sarchi,SarchÃ­ Sur,-84.34861580248452,10.075000416913042
CRI-000219,101448,EL PROGRESO,,CRI,Provincia Alajuela,San Ramon,San Lorenzo,-84.56664725771186,10.334809993239494
CRI-000220,101449,BAJO CORDOBA,,CRI,Provincia Alajuela,San Ramon,San Lorenzo,-84.53059417426005,10.268236046509944
CRI-000221,101454,JACINTO AVILA ARAYA,,CRI,Provincia Alajuela,Palmeras,Candelaria,-84.42442848383287,10.032409001038983
CRI-000222,101458,CAROLINA RODRIGUEZ DE MIRAMBELL,,CRI,Provincia Alajuela,San Ramon,Piedades Sur,-84.56122979867706,10.128509327887356
CRI-000223,101459,CARRERA BUENA,,CRI,Provincia Alajuela,San Ramon,Zapotal,-84.64185322635926,10.103313554708347
CRI-000224,101461,GUADALUPE,,CRI,Provincia Alajuela,Zarcero,Guadalupe,-84.41039296966943,10.182908973034174
CRI-000225,101462,VALLE AZUL,,CRI,Provincia Alajuela,San Ramon,San Lorenzo,-84.54806300845273,10.334384547938482
CRI-000226,101465,FERMIN RODRIGUEZ CORDERO,,CRI,Provincia Alajuela,San Ramon,San Lorenzo,-84.5298554400647,10.309664604251067
CRI-000227,101471,FEDERICO SALAS CARVAJAL,,CRI,Provincia Alajuela,San Ramon,San Juan,-84.46544264109569,10.10607765107895
CRI-000228,101472,FELIX VILLALOBOS VARGAS,,CRI,Provincia Alajuela,Zarcero,Laguna,-84.4000578880676,10.210358663271172
CRI-000229,101473,FRANCISCO JOSE ORLICH BOLMARCICH,,CRI,Provincia Alajuela,San Ramon,Piedades Norte,-84.53260151597003,10.144779803635323
CRI-000230,101474,GEORGINA BOLMARCICH DE ORLICH,,CRI,Provincia Alajuela,San Ramon,San Rafael,-84.4731606365933,10.014544851241551
CRI-000231,101475,HELI SANTAMARIA NAVARRO,,CRI,Provincia Alajuela,San Ramon,Santiago,-84.51054910102766,10.06786394893615
CRI-000232,101477,ALTO CASTRO,,CRI,Provincia Alajuela,Sarchi,SarchÃ­ Sur,-84.33508575715446,10.081925105740485
CRI-000233,101478,JOAQUIN LORENZO SANCHO QUESADA,,CRI,Provincia Alajuela,Palmeras,Buenos Aires,-84.43659967287842,10.069884769014434
CRI-000234,101479,JORGE WASHINGTON,,CRI,Provincia Alajuela,San Ramon,San RamÃ³n,-84.47061233874985,10.084576166089144
CRI-000235,101481,PBRO. JOSE DEL OLMO,,CRI,Provincia Alajuela,Naranjo,Palmitos,-84.41438342609668,10.090933000418095
CRI-000236,101482,JOSE VALENCIANO ARRIETA,,CRI,Provincia Alajuela,Zarcero,Zapote,-84.41676250078051,10.253801535420765
CRI-000237,101484,JUDAS TADEO CORRALES SAENZ,,CRI,Provincia Alajuela,Naranjo,Naranjo,-84.40098921143185,10.109799118795857
CRI-000238,101485,JULIA FERNANDEZ RODRIGUEZ,,CRI,Provincia Alajuela,Palmeras,Esquipulas,-84.42228739353499,10.056852538146293
CRI-000239,101487,LA BRISA,,CRI,Provincia Alajuela,Zarcero,Brisas,-84.39229358264149,10.229598496509754
CRI-000240,101490,JULIAN VOLIO LLORENTE,,CRI,Provincia Alajuela,San Ramon,Volio,-84.4557405849138,10.126941752462601
CRI-000241,101493,LA PALMA,,CRI,Provincia Alajuela,San Ramon,Piedades Sur,-84.51680427195748,10.114741122495257
CRI-000242,101495,RAMON BARQUERO SALAS,,CRI,Provincia Alajuela,Zarcero,Laguna,-84.43667880610369,10.21055142270047
CRI-000243,101496,LA PICADA,,CRI,Provincia Alajuela,Zarcero,Palmira,-84.35715511861716,10.200011398733105
CRI-000244,101497,SAN MIGUEL OESTE,,CRI,Provincia Alajuela,Naranjo,San Miguel,-84.40868637921135,10.074867486328333
CRI-000245,101500,LISIMACO CHAVARRIA PALMA,,CRI,Provincia Alajuela,San Ramon,Volio,-84.44636241932406,10.157987382782412
CRI-000246,101501,LLANO BONITO,,CRI,Provincia Alajuela,Naranjo,CirrÃ­ Sur,-84.37478371262749,10.169175804877584
CRI-000247,101502,LLANO BRENES,,CRI,Provincia Alajuela,San Ramon,San Rafael,-84.47223302331034,9.994191761171024
CRI-000248,101504,LORENZO GONZALEZ ARGUEDAS,,CRI,Provincia Alajuela,Naranjo,San JosÃ©,-84.40215587586452,10.164545477212167
CRI-000249,101506,LOS PINOS,,CRI,Provincia Alajuela,Palmeras,Candelaria,-84.43214917940439,10.02575308715738
CRI-000250,101508,LOURDES,,CRI,Provincia Alajuela,Naranjo,CirrÃ­ Sur,-84.3715961543132,10.143141583289806
CRI-000251,101511,PBRO. MANUEL BERNARDO GOMEZ SALAZAR,,CRI,Provincia Alajuela,Palmeras,Palmares,-84.43173313194576,10.058257375687228
CRI-000252,101512,MANUEL QUESADA BASTOS,,CRI,Provincia Alajuela,San Ramon,ConcepciÃ³n,-84.44988916388547,10.115623847444075
CRI-000253,101514,MIGUEL CARBALLO CORRALES,,CRI,Provincia Alajuela,Naranjo,CirrÃ­ Sur,-84.37473819017544,10.160177334739847
CRI-000254,101516,MONSENOR JUAN VICENTE SOLIS FERNANDEZ,,CRI,Provincia Alajuela,San Ramon,Piedades Sur,-84.53400138005138,10.11614211618535
CRI-000255,101517,MONSENOR CLODOVEO HIDALGO SOLANO,,CRI,Provincia Alajuela,San Ramon,San Isidro,-84.44704801802112,10.086868726779848
CRI-000256,101518,MORELOS,,CRI,Provincia Alajuela,Zarcero,Guadalupe,-84.42417212400737,10.177705924671088
CRI-000257,101521,OTILIO ULATE BLANCO,,CRI,Provincia Alajuela,Zarcero,Zarcero,-84.39112286059073,10.183744627208752
CRI-000258,101522,SALUSTIO CAMACHO MUNOZ,,CRI,Provincia Alajuela,Zarcero,Palmira,-84.37630229886729,10.209827743890227
CRI-000259,101524,PETERS,,CRI,Provincia Alajuela,Sarchi,RodrÃ­guez,-84.3528072600748,10.101316769536012
CRI-000260,101526,QUEBRADILLAS,,CRI,Provincia Alajuela,San Ramon,Piedades Sur,-84.5601907418253,10.112892497487591
CRI-000261,101527,REPUBLICA DE URUGUAY,,CRI,Provincia Alajuela,Naranjo,San Miguel,-84.39042193042393,10.074710691705075
CRI-000262,101528,REPUBLICA DE COLOMBIA,,CRI,Provincia Alajuela,Naranjo,Naranjo,-84.37944527288789,10.096086791872917
CRI-000263,101529,REPUBLICA DE CUBA,,CRI,Provincia Alajuela,Naranjo,San JosÃ©,-84.39394132645936,10.139874051759508
CRI-000264,101530,REPUBLICA DEL ECUADOR,,CRI,Provincia Alajuela,Naranjo,San Juan,-84.39763456772616,10.11429485586501
CRI-000265,101531,DR. RICARDO MORENO CANAS,,CRI,Provincia Alajuela,Palmeras,Zaragoza,-84.43466264679795,10.040858548530633
CRI-000266,101532,RINCON DE MORA,,CRI,Provincia Alajuela,San Ramon,San Rafael,-84.47285618476846,10.041061179998755
CRI-000267,101533,PABLO ALVARADO VARGAS,,CRI,Provincia Alajuela,Palmeras,Zaragoza,-84.4510588012929,10.034431682468492
CRI-000268,101535,SAN FRANCISCO,,CRI,Provincia Alajuela,San Ramon,Piedades Sur,-84.54559535339017,10.075445107025741
CRI-000269,101536,SAN PEDRO,,CRI,Provincia Alajuela,Sarchi,San Pedro,-84.32846843289316,10.111507619668094
CRI-000270,101537,MIXTA SAN RAFAEL,,CRI,Provincia Alajuela,San Ramon,San Rafael,-84.47394457584244,10.06350564928613
CRI-000271,101538,SAN ROQUE,,CRI,Provincia Alajuela,Naranjo,Palmitos,-84.43220664569165,10.10254843449189
CRI-000272,101539,SANTIAGO,,CRI,Provincia Alajuela,San Ramon,Santiago,-84.48542689513047,10.063966748926799
CRI-000273,101542,EULOGIO SALAZAR LARA,,CRI,Provincia Alajuela,Sarchi,SarchÃ­ Sur,-84.34032145467054,10.083948409773685
CRI-000274,101543,SIMON BOLIVAR,,CRI,Provincia Alajuela,San Ramon,Piedades Norte,-84.492574898055,10.108835692974234
CRI-000275,101545,SAN RAFAEL,,CRI,Provincia Alajuela,Naranjo,Naranjo,-84.38859339537287,10.117173328145308
CRI-000276,101547,PBRO. VENANCIO DE ONA Y MARTINEZ,,CRI,Provincia Alajuela,Palmeras,Santiago,-84.44450185090325,10.022951277220272
CRI-000277,101548,COOPEZAMORA,,CRI,Provincia Alajuela,San Ramon,San Lorenzo,-84.53696957032702,10.32045260975649
CRI-000278,101550,ZAPOTE,,CRI,Provincia Alajuela,Zarcero,Zapote,-84.42418902537727,10.224524592213188
CRI-000279,101553,RINCON DE OROZCO,,CRI,Provincia Alajuela,San Ramon,San Rafael,-84.45878185349292,10.068070167045022
CRI-000280,101554,SABANILLA,,CRI,Provincia Alajuela,Sarchi,RodrÃ­guez,-84.34913051124538,10.123942276026316
CRI-000281,101556,POTRERILLOS,,CRI,Provincia Alajuela,San Ramon,Piedades Sur,-84.57927698922872,10.114779733093975
CRI-000282,101562,DOS AGUAS,,CRI,Provincia Alajuela,Los Chiles,El Amparo,-84.61593310375659,10.795152474554078
CRI-000283,101567,PENJAMO,,CRI,Provincia Alajuela,San Carlos,Florencia,-84.48270031276843,10.344667435065084
CRI-000284,101569,TRES Y TRES,,CRI,Provincia Alajuela,San Carlos,Pocosol,-84.54573761528697,10.651490870945686
CRI-000285,101574,EL RECREO,,CRI,Provincia Alajuela,Los Chiles,Los Chiles,-84.52581911158946,10.948955391580373
CRI-000286,101576,SANGREGADO,,CRI,Provincia Guanacaste,Tilaran,Arenal,-84.77848906799673,10.491966488404554
CRI-000287,101578,SAN LUIS,,CRI,Provincia Alajuela,San Carlos,Quesada,-84.42220760268998,10.359967254648494
CRI-000288,101581,COOPEVEGA,,CRI,Provincia Alajuela,San Carlos,Cutris,-84.39012437729464,10.721028680563307
CRI-000289,101582,EL CARMEN,,CRI,Provincia Alajuela,San Ramon,PeÃ±as Blancas,-84.59632691982013,10.43951428285261
CRI-000290,101586,BONANZA,,CRI,Provincia Alajuela,San Carlos,Florencia,-84.52240833033964,10.466514572143057
CRI-000291,101589,TRES AMIGOS,,CRI,Provincia Alajuela,San Carlos,Pital,-84.31133378576567,10.543290986862662
CRI-000292,101591,LA URRACA,,CRI,Provincia Alajuela,Los Chiles,San Jorge,-84.56802237387572,10.783937245891313
CRI-000293,101592,ESCALERAS,,CRI,Provincia Alajuela,Los Chiles,Los Chiles,-84.5053073694413,10.913501189513296
CRI-000294,101597,I.D.A. GARABITO,,CRI,Provincia Alajuela,San Carlos,Aguas Zarcas,-84.33467165598411,10.361120403391123
CRI-000295,101602,CAIMITOS,,CRI,Provincia Alajuela,San Carlos,Florencia,-84.47592972055723,10.372397377910309
CRI-000296,101606,SANTA LUCIA,,CRI,Provincia Alajuela,San Carlos,Pital,-84.21972749467747,10.536796272851584
CRI-000297,101608,YUCATAN,,CRI,Provincia Heredia,Sarapiqui,CureÃ±a,-84.15806454125621,10.640468558784002
CRI-000298,101609,PUEBLO NUEVO,,CRI,Provincia Alajuela,San Carlos,Cutris,-84.39686529996743,10.629678063061695
CRI-000299,101610,TRECE DE NOVIEMBRE,,CRI,Provincia Alajuela,San Carlos,Monterrey,-84.70509847882407,10.531259457852936
CRI-000300,101612,SAN ISIDRO,,CRI,Provincia Alajuela,Los Chiles,El Amparo,-84.68142796621542,10.837028465254011
CRI-000301,101613,SAN ALEJO,,CRI,Provincia Alajuela,San Carlos,Pocosol,-84.54131796558201,10.78421923421499
CRI-000302,101620,JUAN RAFAEL CHACON CASTRO,,CRI,Provincia Alajuela,San Carlos,Cutris,-84.47967317208281,10.527381774945974
CRI-000303,101625,BUENOS AIRES,,CRI,Provincia Alajuela,San Carlos,Venecia,-84.30311931997484,10.38131282718799
CRI-000304,101628,ACAPULCO,,CRI,Provincia Alajuela,San Carlos,Pocosol,-84.54465368464486,10.66458291203163
CRI-000305,101629,LA VIRGEN,,CRI,Provincia Alajuela,Los Chiles,Los Chiles,-84.60427621294832,10.88063143138207
CRI-000306,101635,SANTA FE,,CRI,Provincia Alajuela,Los Chiles,Los Chiles,-84.56009036987766,10.982512891301443
CRI-000307,101638,SAN VITO,,CRI,Provincia Alajuela,San Carlos,Cutris,-84.31934548152701,10.740599915390117
CRI-000308,101639,BUENOS AIRES,,CRI,Provincia Alajuela,San Carlos,Pocosol,-84.50370920128069,10.575328962225347
CRI-000309,101643,POCOSOL,,CRI,Provincia Alajuela,San Carlos,Pocosol,-84.46632413006516,10.950918666166716
CRI-000310,101648,CARLOS MAROTO QUIROS,,CRI,Provincia Alajuela,San Carlos,Florencia,-84.47295230826684,10.363003006070743
CRI-000311,101649,MORAZAN,,CRI,Provincia Alajuela,San Carlos,Pocosol,-84.454531440821,10.645917589934683
CRI-000312,101651,CERRO CORTES,,CRI,Provincia Alajuela,San Carlos,Aguas Zarcas,-84.3579717563864,10.444039339050557
CRI-000313,101655,CARRIZAL,,CRI,Provincia Alajuela,San Carlos,Pocosol,-84.47846961728179,10.773222482974154
CRI-000314,101657,CHAMBACU,,CRI,Provincia Alajuela,San Carlos,Monterrey,-84.61363385024782,10.5893834072737
CRI-000315,101660,SAN ISIDRO,,CRI,Provincia Alajuela,Los Chiles,San Jorge,-84.62404457059779,10.6789852944548
CRI-000316,101661,COCOBOLO,,CRI,Provincia Alajuela,San Carlos,Cutris,-84.42799821935091,10.701303214942053
CRI-000317,101663,MAJAGUA,,CRI,Provincia Alajuela,San Carlos,Pocosol,-84.49963526839393,10.739698490817917
CRI-000318,101664,CASTELMARE,,CRI,Provincia Alajuela,San Carlos,Cutris,-84.29362988593194,10.61638123001113
CRI-000319,101668,SECTOR ANGELES,,CRI,Provincia Alajuela,San Ramon,PeÃ±as Blancas,-84.56856761456346,10.435442880602409
CRI-000320,101669,COQUITALES,,CRI,Provincia Alajuela,Los Chiles,San Jorge,-84.54662828338036,10.734686362549262
CRI-000321,101672,CURIRE,,CRI,Provincia Alajuela,San Carlos,Cutris,-84.34426695435835,10.820189042091142
CRI-000322,101673,QUIJONGO,,CRI,Provincia Alajuela,Los Chiles,San Jorge,-84.58157552719916,10.721013637931646
CRI-000323,101681,GUARUMAL,,CRI,Provincia Alajuela,San Carlos,Cutris,-84.38109236642012,10.779381523971933
CRI-000324,101685,CUESTILLAS,,CRI,Provincia Alajuela,San Carlos,Florencia,-84.50605409197553,10.369139472817894
CRI-000325,101688,PITALITO SUR,,CRI,Provincia Alajuela,San Carlos,Aguas Zarcas,-84.30779066429558,10.40059674998911
CRI-000326,101690,DULCE NOMBRE,,CRI,Provincia Alajuela,San Carlos,Florencia,-84.43535336134367,10.385240744337581
CRI-000327,101695,ESTERITO,,CRI,Provincia Alajuela,San Carlos,Pocosol,-84.50546891856554,10.541639834570535
CRI-000328,101701,CARMEN LIDIA CASTRO RODRIGUEZ,,CRI,Provincia Alajuela,San Ramon,PeÃ±as Blancas,-84.57921478439593,10.373844631756649
CRI-000329,101705,EL SAINO,,CRI,Provincia Alajuela,San Carlos,Pital,-84.28060373631071,10.580114490971484
CRI-000330,101707,ENTRE RIOS,,CRI,Provincia Alajuela,San Carlos,Venado,-84.74922735587354,10.557307371972456
CRI-000331,101709,JUANILAMA,,CRI,Provincia Alajuela,San Carlos,Pocosol,-84.56536366773604,10.660694738572488
CRI-000332,101711,ANTONIO JOSE DE SUCRE,,CRI,Provincia Alajuela,San Carlos,Quesada,-84.4273498403514,10.277992542192603
CRI-000333,101713,LAS NUBES,,CRI,Provincia Alajuela,Los Chiles,Los Chiles,-84.55376769203461,10.908262078827875
CRI-000334,101715,ULIMA,,CRI,Provincia Alajuela,San Carlos,Florencia,-84.50430191912318,10.456783787228256
CRI-000335,101716,ISLA CHICA,,CRI,Provincia Alajuela,Los Chiles,Los Chiles,-84.580164071669,11.028797891104963
CRI-000336,101717,JUAN BAUTISTA SOLIS RODRIGUEZ,,CRI,Provincia Alajuela,San Carlos,Quesada,-84.43176375066798,10.33805783388497
CRI-000337,101720,JUAN SANTAMARIA,,CRI,Provincia Alajuela,San Carlos,Florencia,-84.47397653851512,10.39829790517357
CRI-000338,101722,LA CEIBA,,CRI,Provincia Alajuela,San Carlos,Florencia,-84.44298237495839,10.41687692979612
CRI-000339,101723,PROCOPIO GAMBOA VILLALOBOS,,CRI,Provincia Alajuela,San Ramon,PeÃ±as Blancas,-84.59656087589543,10.407248854819562
CRI-000340,101728,SAN ANTONIO,,CRI,Provincia Alajuela,Los Chiles,El Amparo,-84.59416123768126,10.79144194851343
CRI-000341,101735,BETANIA,,CRI,Provincia Alajuela,San Carlos,Cutris,-84.37575085150625,10.653117695357423
CRI-000342,101736,BOCA TAPADA,,CRI,Provincia Alajuela,San Carlos,Pital,-84.23057416794947,10.676704246043357
CRI-000343,101738,LAS BANDERAS,,CRI,Provincia Alajuela,San Carlos,Pocosol,-84.46809800874453,10.844034692361136
CRI-000344,101739,COQUITAL,,CRI,Provincia Alajuela,Los Chiles,Los Chiles,-84.57012344912351,10.944477136147674
CRI-000345,101740,RIO TICO,,CRI,Provincia Alajuela,San Carlos,Cutris,-84.34779208380405,10.760195287490719
CRI-000346,101745,LAS DELICIAS VENADO,,CRI,Provincia Alajuela,San Carlos,Venado,-84.7077065802463,10.592200822805987
CRI-000347,101747,LINDA VISTA,,CRI,Provincia Alajuela,San Carlos,Venado,-84.72404310913684,10.566342781842174
CRI-000348,101750,SAN ISIDRO,,CRI,Provincia Alajuela,San Carlos,Pocosol,-84.40580864734488,10.945297987392856
CRI-000349,101754,CHIMURRIA,,CRI,Provincia Alajuela,Los Chiles,San Jorge,-84.56058722356335,10.73099913286972
CRI-000350,101755,RICARDO VARGAS MURILLO,,CRI,Provincia Alajuela,Los Chiles,Los Chiles,-84.71770763044904,11.034612666960916
CRI-000351,101757,LOS CORRALES,,CRI,Provincia Alajuela,Los Chiles,El Amparo,-84.64453872731771,10.82493589645025
CRI-000352,101758,LOS LLANOS,,CRI,Provincia Alajuela,San Carlos,Aguas Zarcas,-84.34464769219254,10.46185529805438
CRI-000353,101759,JUAN FELIX ESTRADA,,CRI,Provincia Alajuela,San Carlos,Venecia,-84.25293954787726,10.338984958711178
CRI-000354,101760,MEDIO QUESO,,CRI,Provincia Alajuela,Los Chiles,Los Chiles,-84.62151766133505,10.965437301792702
CRI-000355,101761,MIRADOR,,CRI,Provincia Alajuela,San Carlos,Monterrey,-84.60031617070767,10.521792522700025
CRI-000356,101762,MONTERREY,,CRI,Provincia Alajuela,San Carlos,Monterrey,-84.65830911581335,10.537624709563804
CRI-000357,101765,MONTEALEGRE,,CRI,Provincia Alajuela,Los Chiles,El Amparo,-84.59027701088537,10.84812388115273
CRI-000358,101766,EL CRUCE,,CRI,Provincia Alajuela,Los Chiles,Los Chiles,-84.54422491525503,10.989062877455252
CRI-000359,101770,LLANO VERDE,,CRI,Provincia Alajuela,San Carlos,Pocosol,-84.38291527400257,10.890136170705851
CRI-000360,101776,GONZALO MONGE BERMUDEZ,,CRI,Provincia Alajuela,San Carlos,Pital,-84.27203119445326,10.450393159125749
CRI-000361,101777,PLATANAR,,CRI,Provincia Alajuela,San Carlos,Florencia,-84.47005682084288,10.42018539163917
CRI-000362,101778,CONCEPCION,,CRI,Provincia Alajuela,Los Chiles,El Amparo,-84.62821430010338,10.858554386188136
CRI-000363,101782,PORVENIR,,CRI,Provincia Alajuela,San Carlos,Quesada,-84.42831178036609,10.290832382939163
CRI-000364,101784,PUENTE CASA,,CRI,Provincia Alajuela,San Carlos,Florencia,-84.45018152897892,10.363276847204773
CRI-000365,101785,PUERTO SECO,,CRI,Provincia Alajuela,San Carlos,Venado,-84.70916546207859,10.617285572655499
CRI-000366,101786,PUNTA CORTES,,CRI,Provincia Alajuela,Los Chiles,Los Chiles,-84.6768315770178,11.048516791088941
CRI-000367,101790,PATASTILLO,,CRI,Provincia Alajuela,San Carlos,Cutris,-84.33031902647765,10.714003026346083
CRI-000368,101791,PUEBLO VIEJO,,CRI,Provincia Alajuela,San Carlos,Venecia,-84.28100397617469,10.351793710461758
CRI-000369,101795,SABALITO,,CRI,Provincia Alajuela,San Carlos,Monterrey,-84.661263611216,10.602501858691422
CRI-000370,101796,SABOGAL,,CRI,Provincia Alajuela,Los Chiles,El Amparo,-84.69746866171306,10.853020908311334
CRI-000371,101797,LINDA VISTA,,CRI,Provincia Alajuela,San Ramon,PeÃ±as Blancas,-84.61258010345442,10.409921347117953
CRI-000372,101799,SAN ANTONIO,,CRI,Provincia Alajuela,San Carlos,Monterrey,-84.66174339713963,10.559393431415321
CRI-000373,101800,SAN BOSCO,,CRI,Provincia Alajuela,San Carlos,Pocosol,-84.57611885620955,10.633019101361553
CRI-000374,101805,SAN GERARDO,,CRI,Provincia Alajuela,San Carlos,Pocosol,-84.488081689309,10.589901168730504
CRI-000375,101806,SAN GERARDO,,CRI,Provincia Alajuela,San Carlos,Quesada,-84.4154108995393,10.31578706156333
CRI-000376,101809,SAN JORGE,,CRI,Provincia Alajuela,Los Chiles,San Jorge,-84.6504427827671,10.721954745017682
CRI-000377,101816,LAS CUACAS,,CRI,Provincia Alajuela,Los Chiles,Los Chiles,-84.62281285630785,11.031712159538241
CRI-000378,101817,SAN MIGUEL,,CRI,Provincia Alajuela,San Carlos,Monterrey,-84.68660702503135,10.616444097589868
CRI-000379,101821,SAN RAFAEL,,CRI,Provincia Alajuela,San Carlos,Florencia,-84.42527489772195,10.426866384711838
CRI-000380,101823,SAN VICENTE,,CRI,Provincia Alajuela,San Carlos,Quesada,-84.39604838036377,10.28010475728217
CRI-000381,101825,REPUBLICA DE ITALIA,,CRI,Provincia Alajuela,San Carlos,Florencia,-84.51504477084919,10.35805043056037
CRI-000382,101826,SANTA EULALIA,,CRI,Provincia Alajuela,San Carlos,Monterrey,-84.71659955008174,10.541572896225016
CRI-000383,101828,SANTA LUCIA,,CRI,Provincia Alajuela,San Carlos,Venado,-84.81341772131861,10.559047544122576
CRI-000384,101829,SANTA RITA,,CRI,Provincia Alajuela,San Carlos,Florencia,-84.51392628974254,10.32268041105622
CRI-000385,101830,SANTA TERESA NORTE,,CRI,Provincia Alajuela,San Carlos,Cutris,-84.45825159742232,10.557359665936863
CRI-000386,101832,SAN LUIS,,CRI,Provincia Alajuela,San Carlos,Florencia,-84.46511079174786,10.370990489476412
CRI-000387,101839,SANTA ROSA,,CRI,Provincia Alajuela,San Carlos,Pocosol,-84.52819398966686,10.624082439920976
CRI-000388,101841,SANTA TERESA SUR,,CRI,Provincia Alajuela,San Carlos,Cutris,-84.43195178288863,10.539823895060676
CRI-000389,101842,DOMINGO VARGAS AGUILAR,,CRI,Provincia Alajuela,San Carlos,Monterrey,-84.64867388145073,10.554844460929166
CRI-000390,101845,VASCONIA,,CRI,Provincia Alajuela,San Carlos,Aguas Zarcas,-84.36579743282354,10.556209180600263
CRI-000391,101847,OSCAR RULAMAN SALAS,,CRI,Provincia Alajuela,San Carlos,Pital,-84.24661176252256,10.514180895333373
CRI-000392,101849,RANCHO QUEMADO,,CRI,Provincia Alajuela,San Carlos,Pocosol,-84.48745740686351,10.689858404152783
CRI-000393,101852,EL CACHITO,,CRI,Provincia Alajuela,Los Chiles,Los Chiles,-84.64326817602459,11.031722256535096
CRI-000394,101854,PUEBLO NUEVO,,CRI,Provincia Alajuela,Los Chiles,Los Chiles,-84.53704570025263,10.976551244045005
CRI-000395,101855,SAN RAFAEL,,CRI,Provincia Alajuela,Los Chiles,San Jorge,-84.56995761764074,10.744184108731044
CRI-000396,101856,SAN CAYETANO,,CRI,Provincia Alajuela,San Carlos,Venecia,-84.28154661675617,10.374945430327319
CRI-000397,101858,COLONIA GUANACASTE,,CRI,Provincia Alajuela,Los Chiles,San Jorge,-84.67786644431278,10.715961523585971
CRI-000398,101862,PUERTO ESCONDIDO,,CRI,Provincia Alajuela,San Carlos,Pital,-84.28609844499145,10.461128210402398
CRI-000399,101863,LA CRUZ,,CRI,Provincia Alajuela,San Ramon,PeÃ±as Blancas,-84.5703500588202,10.417949182769558
CRI-000400,101867,SAN MARCOS,,CRI,Provincia Alajuela,San Carlos,Cutris,-84.38917134798075,10.608249897640793
CRI-000401,101871,SAN RAFAEL,,CRI,Provincia Alajuela,San Ramon,PeÃ±as Blancas,-84.58688425713859,10.394941677139753
CRI-000402,101872,QUEBRADA GRANDE,,CRI,Provincia Alajuela,San Carlos,Pital,-84.30802588925319,10.56341905333998
CRI-000403,101877,SAN DIEGO,,CRI,Provincia Alajuela,San Carlos,Pocosol,-84.54320477094713,10.58486295364737
CRI-000404,101878,SAN FERNANDO,,CRI,Provincia Alajuela,San Carlos,Cutris,-84.33827129243102,10.654389384135769
CRI-000405,101879,MONTELIMAR,,CRI,Provincia Alajuela,San Carlos,Monterrey,-84.57370657591967,10.541701200279842
CRI-000406,101880,PASO REAL,,CRI,Provincia Alajuela,San Carlos,Pocosol,-84.45390208435997,10.754238923846453
CRI-000407,101886,SAN GABRIEL,,CRI,Provincia Alajuela,Guatuso,San Rafael,-84.67733948459055,10.670518709521733
CRI-000408,101891,TERRON COLORADO,,CRI,Provincia Alajuela,San Carlos,Cutris,-84.48970253885369,10.554165091863112
CRI-000409,101893,SAN HUMBERTO,,CRI,Provincia Alajuela,Los Chiles,San Jorge,-84.54946321133026,10.692496924329003
CRI-000410,101894,RON RON ABAJO,,CRI,Provincia Alajuela,San Carlos,Quesada,-84.45921146943157,10.302082097125043
CRI-000411,101900,PIEDRA AZUL,,CRI,Provincia Cartago,Paraiso,Santiago,-83.80941030677349,9.85660992860495
CRI-000412,101901,VILLAS DE AYARCO,,CRI,Provincia Cartago,La Union,San Juan,-84.01353235014763,9.901592592137666
CRI-000413,101902,PRIMO COGHI FERRARI,,CRI,Provincia Cartago,Paraiso,Santiago,-83.81445816250815,9.836998503208408
CRI-000414,101907,JABONCILLO,,CRI,Provincia San JosÃ©,Dota,Copey,-83.79090293702721,9.603593124413417
CRI-000415,101909,SAN BERNARDO,,CRI,Provincia San JosÃ©,Tarrazu,San Lorenzo,-84.0366365917812,9.608377254161361
CRI-000416,101911,SAN FRANCISCO,,CRI,Provincia Cartago,La Union,ConcepciÃ³n,-83.99077315073056,9.926603132864143
CRI-000417,101912,RIO REGADO,,CRI,Provincia Cartago,Paraiso,Santiago,-83.82326606318301,9.848396919847875
CRI-000418,101913,CALLE NARANJO,,CRI,Provincia Cartago,La Union,ConcepciÃ³n,-83.99532230648096,9.931432526298869
CRI-000419,101917,SANTA ROSA ARRIBA,,CRI,Provincia San JosÃ©,Leon Cortes Castro,Llano Bonito,-84.09949451144752,9.68994434119241
CRI-000420,101919,SAN GABRIEL,,CRI,Provincia San JosÃ©,Tarrazu,San Lorenzo,-84.05555876547552,9.650929567600844
CRI-000421,101922,LA LUCHA,,CRI,Provincia Cartago,El Guarco,San Isidro,-83.9441716440782,9.742972232806514
CRI-000422,101923,CASAMATA,,CRI,Provincia San JosÃ©,Desamparados,San CristÃ³bal,-83.99033684395,9.77768127920469
CRI-000423,101924,SIXTO CORDERO MARTINEZ,,CRI,Provincia Cartago,Cartago,Quebradilla,-83.99360160541326,9.860395008317143
CRI-000424,101926,LA CIMA,,CRI,Provincia Cartago,La Union,ConcepciÃ³n,-83.97816787689543,9.932305812136523
CRI-000425,101928,VICENTE LACHNER SANDOVAL,,CRI,Provincia Cartago,Paraiso,ParaÃ­so,-83.8458165816478,9.849104738401067
CRI-000426,101930,QUEBRADA SECA,,CRI,Provincia San JosÃ©,Tarrazu,San Carlos,-84.10384243561816,9.635688326933087
CRI-000427,101931,PROCESO SOLANO RAMIREZ,,CRI,Provincia Cartago,Cartago,Dulce Nombre,-83.90064067733358,9.850895082418864
CRI-000428,101932,FLORENCIO DEL CASTILLO,,CRI,Provincia Cartago,Paraiso,CachÃ­,-83.80190139311395,9.824553263333689
CRI-000429,101937,ENCARNACION GAMBOA PIEDRA,,CRI,Provincia Cartago,Alvarado,Capellades,-83.78671000321296,9.922744767028197
CRI-000430,101940,SAN VICENTE,,CRI,Provincia Cartago,La Union,San Rafael,-83.97733772344853,9.900283953471115
CRI-000431,101944,LA GUARIA,,CRI,Provincia Cartago,Cartago,Corralillo,-84.05631975212788,9.77657787232604
CRI-000432,101945,SANTA JUANA,,CRI,Provincia San JosÃ©,Leon Cortes Castro,Llano Bonito,-84.1220471965216,9.645949462142037
CRI-000433,101946,CIPRESES,,CRI,Provincia Cartago,Oreamuno,Cipreses,-83.84338750790839,9.889945644533286
CRI-000434,101947,ORATORIO,,CRI,Provincia Cartago,Alvarado,Cipreses,-83.83261825056142,9.898523705052888
CRI-000435,101949,COPALCHI,,CRI,Provincia Cartago,Cartago,Quebradilla,-84.03373821665045,9.819786802431562
CRI-000436,101950,CORIS,,CRI,Provincia Cartago,Cartago,Quebradilla,-83.99030888043934,9.866570524714385
CRI-000437,101951,CORRALILLO,,CRI,Provincia Cartago,Cartago,Corralillo,-84.03605250797519,9.793814555711858
CRI-000438,101952,LEON CORTES CASTRO,,CRI,Provincia Cartago,Oreamuno,Cot,-83.87405616227795,9.8947605194224
CRI-000439,101955,YERBABUENA,,CRI,Provincia Cartago,La Union,Dulce Nombre,-83.9780013702175,9.91535152297564
CRI-000440,101957,OJO DE AGUA,,CRI,Provincia San JosÃ©,Leon Cortes Castro,San AndrÃ©s,-84.09316498918542,9.728784214250657
CRI-000441,101958,DOMINGO FAUSTINO SARMIENTO,,CRI,Provincia Cartago,Cartago,Dulce Nombre,-83.90864015154966,9.845479039783617
CRI-000442,101959,MOISES COTO FERNANDEZ,,CRI,Provincia Cartago,La Union,Dulce Nombre,-83.98089661643331,9.91991251479097
CRI-000443,101964,PEDRO PEREZ ZELEDON,,CRI,Provincia San JosÃ©,Dota,Copey,-83.91698759598297,9.645524495280384
CRI-000444,101966,SAN LUIS,,CRI,Provincia San JosÃ©,Leon Cortes Castro,Llano Bonito,-84.09101564417075,9.650611995895385
CRI-000445,101969,ALVARO ESQUIVEL BONILLA,,CRI,Provincia Cartago,Paraiso,Orosi,-83.84207197114252,9.77730583794851
CRI-000446,101971,VICTOR CAMPOS VALVERDE,,CRI,Provincia San JosÃ©,Tarrazu,San Lorenzo,-84.04169717262967,9.655020076342469
CRI-000447,101974,GUADALUPE,,CRI,Provincia San JosÃ©,Tarrazu,San Marcos,-84.00407296533238,9.654031095396762
CRI-000448,101991,LA PAZ,,CRI,Provincia Cartago,El Guarco,San Isidro,-83.97789726341773,9.75463830964534
CRI-000449,101992,PROVIDENCIA,,CRI,Provincia San JosÃ©,Dota,Copey,-83.86066582151769,9.557176682905567
CRI-000450,101995,LLANO BONITO,,CRI,Provincia San JosÃ©,Leon Cortes Castro,Llano Bonito,-84.1040311043486,9.662107996689716
CRI-000451,101996,LLANO GRANDE,,CRI,Provincia Cartago,Cartago,Llano Grande,-83.90706517594995,9.9372578043639
CRI-000452,101997,LLANO GRANDE - PACAYAS,,CRI,Provincia Cartago,Alvarado,Pacayas,-83.82079404743051,9.915288655150789
CRI-000453,101998,LOAIZA,,CRI,Provincia Cartago,Paraiso,CachÃ­,-83.82402755203313,9.81339498220407
CRI-000454,101999,SAN IGNACIO DE LOYOLA,,CRI,Provincia Cartago,Cartago,San NicolÃ¡s,-83.92901306226541,9.879987944536216
CRI-000455,102004,NAPOLES,,CRI,Provincia San JosÃ©,Tarrazu,San Lorenzo,-84.06614948073721,9.607302637709893
CRI-000456,102005,RUDECINDO VARGAS QUIROS,,CRI,Provincia Cartago,Cartago,Dulce Nombre,-83.87881116097668,9.811613776774747
CRI-000457,102006,BAJO CANET,,CRI,Provincia San JosÃ©,Tarrazu,San Marcos,-83.99968692088859,9.6958394501849
CRI-000458,102007,CARLOS MONGE ALFARO,,CRI,Provincia Cartago,Cartago,San NicolÃ¡s,-83.93739909534627,9.887430990967395
CRI-000459,102008,OROSI,,CRI,Provincia Cartago,Paraiso,Orosi,-83.85443550452595,9.796237717643
CRI-000460,102010,PBRO. JUAN DE DIOS TREJOS,,CRI,Provincia Cartago,Alvarado,Pacayas,-83.81042988741642,9.916266316229247
CRI-000461,102012,JOSEFA CALDERON NARANJO,,CRI,Provincia Cartago,El Guarco,San Isidro,-83.9764920906495,9.782099147528896
CRI-000462,102015,PALOMO,,CRI,Provincia Cartago,Paraiso,Orosi,-83.83999123389263,9.785924196685398
CRI-000463,102019,LA LAGUNA,,CRI,Provincia Cartago,Paraiso,ParaÃ­so,-83.87662198474752,9.831384254299302
CRI-000464,102020,RAMON AGUILAR FERNANDEZ,,CRI,Provincia Cartago,Oreamuno,Cot,-83.86725250967287,9.886626734410704
CRI-000465,102022,MANUEL AVILA CAMACHO,,CRI,Provincia Cartago,Oreamuno,Potrero Cerrado,-83.87993549248088,9.91798317312359
CRI-000466,102023,FELIPE ALVARADO ECHANDI,,CRI,Provincia Cartago,Paraiso,Orosi,-83.86798737529665,9.80656794851144
CRI-000467,102025,PURISIL,,CRI,Provincia Cartago,Paraiso,Orosi,-83.82026154627178,9.760266101077503
CRI-000468,102026,QUEBRADILLA,,CRI,Provincia Cartago,Cartago,Quebradilla,-83.98930926887395,9.843617254855408
CRI-000469,102028,QUIRCOT,,CRI,Provincia Cartago,Cartago,San NicolÃ¡s,-83.93298005755445,9.88555568735908
CRI-000470,102031,LA ESPERANZA,,CRI,Provincia Cartago,El Guarco,San Isidro,-83.88665209670334,9.683077478413612
CRI-000471,102033,BUENOS AIRES,,CRI,Provincia Cartago,Alvarado,Pacayas,-83.80853020756507,9.928657534599093
CRI-000472,102034,ANTONIO CAMACHO ORTEGA,,CRI,Provincia Cartago,Cartago,Corralillo,-84.04716655621847,9.783723015034239
CRI-000473,102035,RICARDO ANDRE STRAUSS,,CRI,Provincia Cartago,La Union,Dulce Nombre,-83.99014236685157,9.91900621256448
CRI-000474,102038,SAN BLAS,,CRI,Provincia Cartago,Cartago,Carmen,-83.91158876803642,9.873518250526978
CRI-000475,102039,SAN CARLOS,,CRI,Provincia San JosÃ©,Tarrazu,San Carlos,-84.09316096165124,9.629198978961032
CRI-000476,102042,SAN GERARDO,,CRI,Provincia Cartago,Oreamuno,Santa Rosa,-83.8416602678395,9.926039941282959
CRI-000477,102043,SAN GUILLERMO,,CRI,Provincia San JosÃ©,Tarrazu,San Marcos,-84.00551007669193,9.639621507101404
CRI-000478,102044,SAN ISIDRO,,CRI,Provincia San JosÃ©,Leon Cortes Castro,San Isidro,-84.07344795378104,9.676322270916062
CRI-000479,102045,CARLOS LUIS VALVERDE VEGA,,CRI,Provincia Cartago,El Guarco,San Isidro,-83.95320835314236,9.829005336727107
CRI-000480,102049,MARIA AMELIA MONTEALEGRE,,CRI,Provincia Cartago,La Union,San Juan,-84.00788213468553,9.908601507088237
CRI-000481,102050,SAN LORENZO,,CRI,Provincia San JosÃ©,Tarrazu,San Lorenzo,-84.03051956524692,9.640143987501437
CRI-000482,102051,LEON CORTES CASTRO,,CRI,Provincia San JosÃ©,Tarrazu,San Marcos,-84.02315036000772,9.659569660433922
CRI-000483,102055,SAN PABLO,,CRI,Provincia Cartago,Alvarado,Santa Rosa,-83.83507201974363,9.93637855596872
CRI-000484,102056,MANUEL CASTRO BLANCO,,CRI,Provincia San JosÃ©,Leon Cortes Castro,San Pablo,-84.04139939912908,9.684129514635499
CRI-000485,102057,SAN PEDRO,,CRI,Provincia San JosÃ©,Tarrazu,San Marcos,-83.99427505358,9.669200446825819
CRI-000486,102058,SAN RAFAEL ABAJO,,CRI,Provincia San JosÃ©,Leon Cortes Castro,Llano Bonito,-84.0993133769301,9.658994482498796
CRI-000487,102059,CAROLINA BELLELLI,,CRI,Provincia Cartago,La Union,San Rafael,-83.97414229683238,9.90748432969954
CRI-000488,102062,GUATUSO,,CRI,Provincia Cartago,El Guarco,San Isidro,-83.94743955064797,9.820511471844364
CRI-000489,102064,CAMILO GAMBOA VARGAS,,CRI,Provincia San JosÃ©,Leon Cortes Castro,Santa Cruz,-84.02380530961013,9.732287997845273
CRI-000490,102065,JULIO SANCHO JIMENEZ,,CRI,Provincia Cartago,Oreamuno,Santa Rosa,-83.84044173415056,9.918144361043069
CRI-000491,102067,GUILLERMO RODRIGUEZ AGUILAR,,CRI,Provincia Cartago,Alvarado,Capellades,-83.77619261769244,9.93021466780066
CRI-000492,102068,MIGUEL PICADO BARQUERO,,CRI,Provincia Cartago,Paraiso,Santiago,-83.7979187274218,9.867941268717026
CRI-000493,102071,SAN FRANCISCO,,CRI,Provincia San JosÃ©,Leon Cortes Castro,Llano Bonito,-84.11454165978832,9.690899033635239
CRI-000494,102074,MATA DE CANA,,CRI,Provincia San JosÃ©,Tarrazu,San Lorenzo,-84.05238284673091,9.624954646292524
CRI-000495,102080,MANUEL DE JESUS JIMENEZ,,CRI,Provincia Cartago,Cartago,Tierra Blanca,-83.89432617372351,9.915968505284923
CRI-000496,102084,URASCA,,CRI,Provincia Cartago,Paraiso,CachÃ­,-83.79411888922952,9.8425559265357
CRI-000497,102085,VARA DEL ROBLE,,CRI,Provincia Cartago,El Guarco,San Isidro,-83.9592851944443,9.742339964988853
CRI-000498,102087,ZAPOTAL,,CRI,Provincia San JosÃ©,Tarrazu,San Lorenzo,-84.0710827803441,9.64472722021032
CRI-000499,102091,LA LIDIA,,CRI,Provincia San JosÃ©,Dota,Copey,-83.80393359344177,9.557759397079726
CRI-000500,102092,SAN ANTONIO,,CRI,Provincia San JosÃ©,Leon Cortes Castro,San Antonio,-84.05990912013094,9.71746390852345
CRI-000501,102099,WILLIAM BRENES FONSECA,,CRI,Provincia Cartago,Paraiso,CachÃ­,-83.79596119222995,9.826062269161358
CRI-000502,102103,EL PROGRESO,,CRI,Provincia Cartago,Turrialba,Tuis,-83.5502932249254,9.885616786627612
CRI-000503,102104,SAN RAFAEL,,CRI,Provincia Cartago,Turrialba,Turrialba,-83.67759060446222,9.903189659154856
CRI-000504,102105,ALTO DE VARAS,,CRI,Provincia Cartago,Turrialba,La Isabel,-83.6636409704915,9.944876445603166
CRI-000505,102106,AQUIARES,,CRI,Provincia Cartago,Turrialba,Santa Rosa,-83.72108643492363,9.936231353534192
CRI-000506,102108,CALLE VARGAS,,CRI,Provincia Cartago,Turrialba,Santa Cruz,-83.72726168829381,9.980118286670217
CRI-000507,102110,ATIRRO,,CRI,Provincia Cartago,Turrialba,La Suiza,-83.65144380711199,9.840383800917767
CRI-000508,102111,AZUL,,CRI,Provincia Cartago,Turrialba,La Isabel,-83.66515346619194,9.91307891859742
CRI-000509,102114,BLORINAK,,CRI,Provincia LimÃ³n,Turrialba,ChirripÃ³,-83.37746731232136,9.77707906006668
CRI-000510,102115,SIKUA DITZA,,CRI,Provincia Cartago,Turrialba,ChirripÃ³,-83.48127617702784,9.78941552466459
CRI-000511,102116,SANTISIMA TRINIDAD,,CRI,Provincia Cartago,Turrialba,Tayutic,-83.56589215133745,9.816297712392101
CRI-000512,102117,CARMEN LYRA,,CRI,Provincia Cartago,Turrialba,Turrialba,-83.67401960676614,9.912157396319786
CRI-000513,102118,CANADA,,CRI,Provincia Cartago,Turrialba,La Suiza,-83.62443940536477,9.856350298000747
CRI-000514,102120,SHARABATA,,CRI,Provincia Cartago,Turrialba,ChirripÃ³,-83.47219264918081,9.763719588428604
CRI-000515,102122,LOURDES,,CRI,Provincia Cartago,Alvarado,Capellades,-83.77579505643097,9.90742639891159
CRI-000516,102126,CHITARIA,,CRI,Provincia Cartago,Turrialba,Pavones,-83.59021981138817,9.935790807102391
CRI-000517,102127,CIEN MANZANAS,,CRI,Provincia Cartago,Turrialba,Tuis,-83.56638811002954,9.85356799114684
CRI-000518,102130,FRANCISCO BONILLA WEPOL,,CRI,Provincia Cartago,Turrialba,Turrialba,-83.70450446475816,9.912641190348602
CRI-000519,102132,BAYEI,,CRI,Provincia LimÃ³n,Limon,Valle La Estrella,-83.32336859110174,9.793181475625815
CRI-000520,102133,ALTO ALMIRANTE,,CRI,Provincia LimÃ³n,Limon,Valle La Estrella,-83.33547591959916,9.770918386515095
CRI-000521,102134,TSIPIRI,,CRI,Provincia Cartago,Turrialba,ChirripÃ³,-83.40409202468912,9.820787570329719
CRI-000522,102135,TSINICLARI,,CRI,Provincia LimÃ³n,Turrialba,ChirripÃ³,-83.35930574525845,9.79821253484372
CRI-000523,102137,BONILLA,,CRI,Provincia Cartago,Turrialba,Santa Teresita,-83.68874692481886,10.022779972860155
CRI-000524,102138,EL SEIS,,CRI,Provincia Cartago,Turrialba,Peralta,-83.62942804720798,9.962407987332538
CRI-000525,102141,RAFAEL ARAYA SEGURA,,CRI,Provincia Cartago,Turrialba,Pavones,-83.62546863547453,9.879981997672745
CRI-000526,102143,DULCE NOMBRE,,CRI,Provincia Cartago,Turrialba,Santa Teresita,-83.6582671367537,9.986150099544469
CRI-000527,102146,SINOLI,,CRI,Provincia LimÃ³n,Limon,Valle La Estrella,-83.41569938167234,9.715766034348402
CRI-000528,102161,KOIYABA,,CRI,Provincia LimÃ³n,Limon,Valle La Estrella,-83.34750632481526,9.763941217058614
CRI-000529,102162,JOKBATA,,CRI,Provincia Cartago,Turrialba,ChirripÃ³,-83.38327692033455,9.803060803978333
CRI-000530,102163,JABILLOS,,CRI,Provincia Cartago,Turrialba,Pavones,-83.61524582433685,9.91718642402585
CRI-000531,102165,JICOTEA,,CRI,Provincia Cartago,Turrialba,Tayutic,-83.53963189454534,9.81391169048977
CRI-000532,102166,CECILIO LINDO MORALES,,CRI,Provincia Cartago,Jimenez,Juan ViÃ±as,-83.74652257615806,9.897170865111931
CRI-000533,102167,EL SITIO DE LAS ABRAS,,CRI,Provincia Cartago,Turrialba,Santa Cruz,-83.72251046389225,9.997215091994011
CRI-000534,102170,LA GUARIA,,CRI,Provincia Cartago,Turrialba,Tres Equis,-83.57214211196954,9.960414350695947
CRI-000535,102174,RODOLFO HERZOG MULLER,,CRI,Provincia Cartago,Turrialba,La Suiza,-83.60997221047262,9.851225766577633
CRI-000536,102175,VERBENA NORTE,,CRI,Provincia Cartago,Turrialba,Santa Rosa,-83.7035563575623,9.945609228563564
CRI-000537,102178,LAS COLONIAS,,CRI,Provincia Cartago,Turrialba,La Suiza,-83.59710299892114,9.841438496669877
CRI-000538,102184,MOLLEJONES,,CRI,Provincia Cartago,Turrialba,La Suiza,-83.56348469133678,9.90124736677975
CRI-000539,102185,MURCIA,,CRI,Provincia Cartago,Turrialba,Turrialba,-83.70701056448064,9.865330874882435
CRI-000540,102186,MANUEL JIMENEZ DE LA GUARDIA,,CRI,Provincia Cartago,Jimenez,Juan ViÃ±as,-83.76360723910351,9.892758960017513
CRI-000541,102187,JENARO BONILLA AGUILAR,,CRI,Provincia Cartago,Turrialba,Turrialba,-83.68369021183841,9.905496594053076
CRI-000542,102189,ORIENTE,,CRI,Provincia Cartago,Jimenez,Pejibaye,-83.68685621907564,9.836188989700524
CRI-000543,102190,PACAYITAS,,CRI,Provincia Cartago,Turrialba,La Suiza,-83.5832153723775,9.886637722915987
CRI-000544,102193,PALOMO,,CRI,Provincia Cartago,Turrialba,Santa Teresita,-83.64173081452972,9.988769486433414
CRI-000545,102196,DR. JOSE MARIA CASTRO MADRIZ,,CRI,Provincia Cartago,Jimenez,Pejibaye,-83.70489954878144,9.811506665704314
CRI-000546,102197,PERALTA,,CRI,Provincia Cartago,Turrialba,Peralta,-83.61201310427836,9.9669740932249
CRI-000547,102198,TAYUTIC,,CRI,Provincia Cartago,Turrialba,Tayutic,-83.55516393725969,9.821575422705703
CRI-000548,102199,SANTUBAL,,CRI,Provincia Cartago,Turrialba,Tayutic,-83.49880787486205,9.827228836623917
CRI-000549,102200,SAN MIGUEL,,CRI,Provincia Cartago,Paraiso,CachÃ­,-83.76413606460746,9.861298491777733
CRI-000550,102202,JULIA FERNANDEZ RODRIGUEZ,,CRI,Provincia Cartago,Turrialba,Santa Cruz,-83.71207660398709,9.961811244667857
CRI-000551,102203,IGNACIO FUENTES MOLINA,,CRI,Provincia Cartago,Turrialba,Pavones,-83.61508149082893,9.898221728978854
CRI-000552,102205,RAFAEL FUENTES PIEDRA,,CRI,Provincia Cartago,Turrialba,Turrialba,-83.70368566638852,9.886987381185934
CRI-000553,102206,SAN JUAN SUR,,CRI,Provincia Cartago,Turrialba,Turrialba,-83.69545866330132,9.879381205021994
CRI-000554,102209,SANTA CRISTINA,,CRI,Provincia Cartago,Turrialba,La Suiza,-83.60591661892013,9.828532564180446
CRI-000555,102210,SANTA CRUZ,,CRI,Provincia Cartago,Turrialba,Santa Cruz,-83.73198610965949,9.96620877061717
CRI-000556,102213,SANTA TERESITA,,CRI,Provincia Cartago,Turrialba,Santa Teresita,-83.64276402778546,9.973743157889752
CRI-000557,102214,SANTA ROSA,,CRI,Provincia Cartago,Turrialba,Santa Rosa,-83.6970293349753,9.925397223898472
CRI-000558,102216,EDUARDO PERALTA JIMENEZ,,CRI,Provincia Cartago,Jimenez,Tucurrique,-83.72288727383996,9.853002578426992
CRI-000559,102217,SAN FRANCISCO,,CRI,Provincia Cartago,Turrialba,Tuis,-83.58187952026185,9.840928054141745
CRI-000560,102218,VERBENA SUR,,CRI,Provincia Cartago,Turrialba,Santa Rosa,-83.7014396913155,9.941098157302182
CRI-000561,102223,SAN PABLO,,CRI,Provincia Cartago,Turrialba,Tres Equis,-83.57084907197152,9.936048611206182
CRI-000562,102226,SAN VICENTE,,CRI,Provincia Cartago,Turrialba,La Suiza,-83.5694503665187,9.881854392007876
CRI-000563,102229,SAN BOSCO,,CRI,Provincia Heredia,Santa Barbara,PurabÃ¡,-84.15816260057359,10.06245540311449
CRI-000564,102233,SAN PABLO,,CRI,Provincia Heredia,Barva,San Pablo,-84.12704061482049,10.022914029358924
CRI-000565,102234,LUCILA GURDIAN MORALES,,CRI,Provincia Heredia,Barva,San Pablo,-84.11356362230579,10.038932497575892
CRI-000566,102259,SANTA CRUZ,,CRI,Provincia Heredia,San Isidro,San JosÃ©,-84.04571039568401,10.013823993683234
CRI-000567,102263,RAMON BARRANTES HERRERA,,CRI,Provincia Heredia,Flores,Barrantes,-84.1488544703729,10.014702417694505
CRI-000568,102267,FELIX ARCADIO MONTERO MONGE,,CRI,Provincia Heredia,Santo Domingo,Santo Domingo,-84.08829865138856,9.98096683950799
CRI-000569,102268,ALFREDO VOLIO JIMENEZ,,CRI,Provincia Heredia,Santa Barbara,JesÃºs,-84.13547004508234,10.058651505222564
CRI-000570,102275,EL PALENQUE,,CRI,Provincia Heredia,San Rafael,ConcepciÃ³n,-84.07264585970296,10.019918405776538
CRI-000571,102292,COLONIA ISIDRENA,,CRI,Provincia Heredia,San Isidro,San Isidro,-84.0531584525487,10.005672249863569
CRI-000572,102293,CONCEPCION,,CRI,Provincia Heredia,San Isidro,ConcepciÃ³n,-84.04663568519948,10.026417423808251
CRI-000573,102305,PEDRO MURILLO PEREZ,,CRI,Provincia Heredia,Barva,Barva,-84.12096658699286,10.020833944702478
CRI-000574,102310,LOURDES DE SACRAMENTO,,CRI,Provincia Heredia,Barva,San JosÃ© de la MontaÃ±a,-84.12139746451703,10.107848741406357
CRI-000575,102312,ULLOA,,CRI,Provincia Heredia,Heredia,Ulloa,-84.14073303416254,9.975040532715687
CRI-000576,102321,JOAQUIN LIZANO GUTIERREZ,,CRI,Provincia Heredia,Heredia,Heredia,-84.11782673447358,9.999420312793399
CRI-000577,102324,FIDEL CHAVES MURILLO,,CRI,Provincia Heredia,Belen,La Ribera,-84.18496904163358,9.987815737986736
CRI-000578,102339,JOSE FIGUERES FERRER,,CRI,Provincia Heredia,Heredia,Mercedes,-84.13094869856177,10.006480673734574
CRI-000579,102347,PORROSATI,,CRI,Provincia Heredia,Barva,San JosÃ© de la MontaÃ±a,-84.10931871836405,10.092432872116419
CRI-000580,102352,PUENTE SALAS,,CRI,Provincia Heredia,Barva,San Pedro,-84.13056033425357,10.035827451394473
CRI-000581,102358,SAN RAFAEL DE VARA BLANCA,,CRI,Provincia Heredia,Heredia,Varablanca,-84.13611347936805,10.174189550365563
CRI-000582,102360,ESPANA,,CRI,Provincia Heredia,Belen,San Antonio,-84.18660873589285,9.981972360057442
CRI-000583,102362,SAN FRANCISCO,,CRI,Provincia Heredia,Heredia,San Francisco,-84.13133216688486,9.995875444326515
CRI-000584,102363,JOSE MARTI,,CRI,Provincia Heredia,San Isidro,San Isidro,-84.05580951336488,10.016546112237544
CRI-000585,102368,JESUS ARGUELLO VILLALOBOS,,CRI,Provincia Heredia,San Isidro,San JosÃ©,-84.03797013292532,10.018432956932234
CRI-000586,102369,SAN LUIS GONZAGA,,CRI,Provincia Heredia,Santo Domingo,ParÃ¡,-84.03041181171085,10.007826411178772
CRI-000587,102370,SAN MIGUEL,,CRI,Provincia Heredia,Barva,San JosÃ© de la MontaÃ±a,-84.1065284782093,10.06822892081606
CRI-000588,102373,JOAQUIN CAMACHO ULATE,,CRI,Provincia Heredia,Barva,San Pedro,-84.13803278025064,10.02844899773156
CRI-000589,102374,PEDRO MARIA BADILLA BOLANOS,,CRI,Provincia Heredia,San Rafael,San Rafael,-84.1005773531902,10.014742718145412
CRI-000590,102379,RAFAEL ARGUEDAS GUTIERREZ,,CRI,Provincia Heredia,Barva,San Roque,-84.1346332709245,10.01574841620238
CRI-000591,102383,SANTA ELENA,,CRI,Provincia Heredia,San Isidro,San JosÃ©,-84.02177023725359,10.026049873577739
CRI-000592,102384,RUBEN DARIO,,CRI,Provincia Heredia,Santo Domingo,Santa Rosa,-84.09629127586514,9.974755186574527
CRI-000593,102386,JOSE EZEQUIEL GONZALEZ VINDAS,,CRI,Provincia Heredia,San Pablo,San Pablo,-84.09767845881112,9.995459506982257
CRI-000594,102388,ELISA SOTO JIMENEZ,,CRI,Provincia Heredia,Santa Barbara,San Pedro,-84.17141241911467,10.02771693551264
CRI-000595,102389,DOMINGO GONZALEZ PEREZ,,CRI,Provincia Heredia,Barva,Santa LucÃ­a,-84.11811765289674,10.01352885304872
CRI-000596,102391,VILLALOBOS,,CRI,Provincia Heredia,Heredia,Ulloa,-84.12157315073799,9.967542427371152
CRI-000597,102394,RODOLFO PETERS SCHEIDER,,CRI,Provincia Heredia,Santa Barbara,PurabÃ¡,-84.16410277624105,10.055584487858225
CRI-000598,102413,MERCEDES SUR,,CRI,Provincia Heredia,Heredia,Mercedes,-84.13999051213526,10.001549730607868
CRI-000599,102415,I.D.A. SAN RAMON,,CRI,Provincia Guanacaste,Bagaces,Bagaces,-85.38229911543074,10.490469818811217
CRI-000600,102417,TEMPATAL,,CRI,Provincia Guanacaste,La Cruz,La Cruz,-85.66559322963789,11.026080946672465
CRI-000601,102418,PUEBLO NUEVO,,CRI,Provincia Guanacaste,Liberia,Liberia,-85.42434681790878,10.642077386776357
CRI-000602,102419,MAQUENCAL,,CRI,Provincia Guanacaste,La Cruz,Santa Cecilia,-85.3960544033061,11.082657635398926
CRI-000603,102424,BARRIO GUADALUPE,,CRI,Provincia Guanacaste,Liberia,CurubandÃ©,-85.46964389178024,10.659064442758444
CRI-000604,102425,CORAZON DE JESUS,,CRI,Provincia Guanacaste,Bagaces,Bagaces,-85.2466252918149,10.51286086797034
CRI-000605,102426,SAN VICENTE,,CRI,Provincia Guanacaste,La Cruz,Santa Cecilia,-85.36531851250463,11.108703689568408
CRI-000606,102427,LAS DELICIAS,,CRI,Provincia Guanacaste,Liberia,Liberia,-85.46299039275826,10.646300127824897
CRI-000607,102430,CANAS DULCES,,CRI,Provincia Guanacaste,Liberia,CaÃ±as Dulces,-85.47771018834352,10.73488194606381
CRI-000608,102431,I.D.A. BAGATZI,,CRI,Provincia Guanacaste,Bagaces,Bagaces,-85.31031291815293,10.405656733876338
CRI-000609,102439,COLONIA BOLANOS,,CRI,Provincia Guanacaste,La Cruz,La Cruz,-85.62154659764025,10.970586642830458
CRI-000610,102441,COPALCHI,,CRI,Provincia Guanacaste,La Cruz,La Cruz,-85.61933882517725,11.154003123740484
CRI-000611,102442,CUAJINIQUIL,,CRI,Provincia Guanacaste,La Cruz,Santa Elena,-85.68163640876881,10.942112953505571
CRI-000612,102444,CURUBANDE,,CRI,Provincia Guanacaste,Liberia,CurubandÃ©,-85.41003080357723,10.719937132059815
CRI-000613,102445,SANTA ELENA,,CRI,Provincia Guanacaste,La Cruz,Santa Cecilia,-85.42096353239603,11.106365795356703
CRI-000614,102446,GUARDIA,,CRI,Provincia Guanacaste,Liberia,Nacascolo,-85.59016218500375,10.565563004346112
CRI-000615,102447,PIJIJE,,CRI,Provincia Guanacaste,Bagaces,Bagaces,-85.35238612080347,10.544972382592928
CRI-000616,102450,CORAZON DE JESUS,,CRI,Provincia Guanacaste,Liberia,Liberia,-85.44572541622013,10.642662363963758
CRI-000617,102451,MARCELINO GARCIA FLAMENCO,,CRI,Provincia Guanacaste,Liberia,Mayorga,-85.49216463694879,10.844643193760067
CRI-000618,102454,EL GUAYABO,,CRI,Provincia Guanacaste,Bagaces,Mogote,-85.22555626097856,10.70851658255316
CRI-000619,102455,IRIGARAY,,CRI,Provincia Guanacaste,Liberia,CaÃ±as Dulces,-85.51096205696128,10.723653913878547
CRI-000620,102458,FALCONIANA,,CRI,Provincia Guanacaste,Bagaces,Bagaces,-85.26120483930403,10.430491683522908
CRI-000621,102468,CELESTINO ALVAREZ RUIZ,,CRI,Provincia Guanacaste,Bagaces,Bagaces,-85.19010912340359,10.525768751785339
CRI-000622,102469,MONTENEGRO,,CRI,Provincia Guanacaste,Bagaces,Bagaces,-85.20902925162224,10.47857043873711
CRI-000623,102471,MORACIA,,CRI,Provincia Guanacaste,Liberia,Liberia,-85.42984536261024,10.635786531834029
CRI-000624,102473,PUEBLO NUEVO,,CRI,Provincia Guanacaste,Bagaces,Mogote,-85.24245556179234,10.730810505309387
CRI-000625,102476,SALITRAL,,CRI,Provincia Guanacaste,Bagaces,Bagaces,-85.24360005572053,10.593415331826277
CRI-000626,102478,SAN DIMAS,,CRI,Provincia Guanacaste,La Cruz,La Cruz,-85.60397898619618,11.177769210399255
CRI-000627,102480,SAN JORGE,,CRI,Provincia Guanacaste,Bagaces,Mogote,-85.29801290000354,10.729677340564763
CRI-000628,102481,SAN PEDRO DE MOGOTE,,CRI,Provincia Guanacaste,Bagaces,Mogote,-85.23637434515787,10.666150273646013
CRI-000629,102482,ISABEL BROWN BROWN,,CRI,Provincia Guanacaste,Liberia,Liberia,-85.43484085727798,10.642193875324025
CRI-000630,102484,SANTA CECILIA,,CRI,Provincia Guanacaste,La Cruz,Santa Cecilia,-85.41490343889049,11.062306242076744
CRI-000631,102488,BELLO HORIZONTE,,CRI,Provincia Guanacaste,La Cruz,La Cruz,-85.6526137989244,10.991559107551259
CRI-000632,102490,SONZAPOTE,,CRI,Provincia Guanacaste,La Cruz,La Cruz,-85.61010054123577,11.111280908261131
CRI-000633,102493,PELON DE LA BAJURA,,CRI,Provincia Guanacaste,Liberia,Liberia,-85.41107349470961,10.489639621944312
CRI-000634,102494,ACOYAPA,,CRI,Provincia Guanacaste,Nicoya,MansiÃ³n,-85.27400464036937,10.078108278108695
CRI-000635,102497,SAN FERNANDO,,CRI,Provincia Guanacaste,Nicoya,SÃ¡mara,-85.53568369970279,9.921090367570523
CRI-000636,102498,CUESTA ROJA,,CRI,Provincia Guanacaste,Hojancha,Monte Romo,-85.39304752089406,9.986617338778096
CRI-000637,102499,CAIMITALITO,,CRI,Provincia Guanacaste,Nicoya,BelÃ©n de Nosarita,-85.49233504737839,10.059037566004752
CRI-000638,102500,CHINAMPAS,,CRI,Provincia Guanacaste,Nicoya,SÃ¡mara,-85.49180229926567,9.92386102143952
CRI-000639,102501,PUERTO MORENO,,CRI,Provincia Guanacaste,Nicoya,Quebrada Honda,-85.25150485681344,10.204720694803967
CRI-000640,102502,ALTOS DEL SOCORRO,,CRI,Provincia Guanacaste,Hojancha,Monte Romo,-85.39945189391686,9.958776485593255
CRI-000641,102504,ARBOLITO,,CRI,Provincia Guanacaste,Hojancha,Puerto Carrillo,-85.43147779002327,9.925971542295883
CRI-000642,102506,ULISES DELGADO AGUILERA,,CRI,Provincia Guanacaste,Nicoya,San Antonio,-85.49109469325023,10.257290587254115
CRI-000643,102507,COLONIA DE VALLE,,CRI,Provincia Guanacaste,Nandayure,Bejuco,-85.3337174508203,9.880952855551737
CRI-000644,102509,BARCO QUEBRADO,,CRI,Provincia Guanacaste,Nicoya,SÃ¡mara,-85.5886684637948,9.901144710776629
CRI-000645,102510,SAN GERARDO,,CRI,Provincia Guanacaste,Hojancha,Hojancha,-85.4419295459845,10.051023576068404
CRI-000646,102511,BEJUCO,,CRI,Provincia Guanacaste,Nandayure,Bejuco,-85.32906788514019,9.851759532552036
CRI-000647,102514,CAMARONAL,,CRI,Provincia Guanacaste,Nandayure,Zapotal,-85.442600607065,9.868194593874989
CRI-000648,102515,BETANIA,,CRI,Provincia Guanacaste,Hojancha,Puerto Carrillo,-85.4436714876011,9.96364032113839
CRI-000649,102517,SERAPIO LOPEZ FAJARDO,,CRI,Provincia Guanacaste,Nicoya,Nosara,-85.65097791601951,9.980517608176951
CRI-000650,102520,CACAO,,CRI,Provincia Guanacaste,Nandayure,Santa Rita,-85.28680071147637,10.051526600369277
CRI-000651,102521,CUPERTINO BRICENO BALTODANO,,CRI,Provincia Guanacaste,Nicoya,Nicoya,-85.47451483099643,10.06709920152353
CRI-000652,102522,TORTUGUERO,,CRI,Provincia Guanacaste,Nicoya,Quebrada Honda,-85.2774099521317,10.185034996777249
CRI-000653,102523,SANTOS CARRILLO,,CRI,Provincia Guanacaste,Nicoya,Quebrada Honda,-85.27554314801786,10.202374914625493
CRI-000654,102524,CERRO NEGRO,,CRI,Provincia Guanacaste,Nicoya,Nicoya,-85.58413037511224,10.093226759735636
CRI-000655,102526,COLAS DE GALLO,,CRI,Provincia Guanacaste,Nicoya,Nicoya,-85.5489700817966,10.160182347685637
CRI-000656,102528,CERRILLOS,,CRI,Provincia Guanacaste,Hojancha,Hojancha,-85.393834268063,10.087513145142912
CRI-000657,102530,BLAS MONTES LEAL,,CRI,Provincia Guanacaste,Nicoya,Quebrada Honda,-85.26402612529665,10.169939686334658
CRI-000658,102531,COROZALITO,,CRI,Provincia Guanacaste,Nandayure,Bejuco,-85.36654118519273,9.861914302611625
CRI-000659,102532,CORRAL DE PIEDRA,,CRI,Provincia Guanacaste,Nicoya,San Antonio,-85.32892413894692,10.232575906462454
CRI-000660,102533,LEON CORTES CASTRO,,CRI,Provincia Guanacaste,Nicoya,San Antonio,-85.37420919931127,10.219849893888709
CRI-000661,102534,CUAJINIQUIL,,CRI,Provincia Guanacaste,Nicoya,BelÃ©n de Nosarita,-85.52298930530891,10.035888971870538
CRI-000662,102535,CUESTA GRANDE,,CRI,Provincia Guanacaste,Nicoya,BelÃ©n de Nosarita,-85.50432353458892,10.001312118280092
CRI-000663,102536,CERRO AZUL,,CRI,Provincia Guanacaste,Nandayure,Porvenir,-85.29816132450603,9.938697224408827
CRI-000664,102539,ABRAHAN FARAH MATA,,CRI,Provincia Guanacaste,Nandayure,Zapotal,-85.30423297386541,9.999593596401246
CRI-000665,102540,ESTERONES,,CRI,Provincia Guanacaste,Nicoya,SÃ¡mara,-85.56012735050713,9.893831368620681
CRI-000666,102541,CANAL,,CRI,Provincia Guanacaste,Nicoya,San Antonio,-85.36932005953874,10.255951678152645
CRI-000667,102543,DULCE NOMBRE,,CRI,Provincia Guanacaste,Nicoya,Nicoya,-85.4942780594429,10.081078016972986
CRI-000668,102550,GARCIMUNOZ,,CRI,Provincia Guanacaste,Nicoya,Nicoya,-85.53464584924679,10.127382197688545
CRI-000669,102551,GARZA,,CRI,Provincia Guanacaste,Nicoya,Nosara,-85.64321314416152,9.910569325186527
CRI-000670,102552,GAMALOTAL,,CRI,Provincia Guanacaste,Nicoya,Nicoya,-85.5061081348094,10.061652377286034
CRI-000671,102553,GUASTOMATAL,,CRI,Provincia Guanacaste,Nicoya,MansiÃ³n,-85.34362979397278,10.082700635010966
CRI-000672,102555,JABILLOS,,CRI,Provincia Guanacaste,Nandayure,Bejuco,-85.227132365312,9.868114009214892
CRI-000673,102556,JUAN DIAZ,,CRI,Provincia Guanacaste,Nicoya,Nicoya,-85.54072109560755,10.167378061186321
CRI-000674,102558,25 DE JULIO,,CRI,Provincia Guanacaste,Nicoya,San Antonio,-85.4617961850706,10.232960113977242
CRI-000675,102559,IGUANITA,,CRI,Provincia Guanacaste,Nicoya,MansiÃ³n,-85.35151343604225,10.067942201429386
CRI-000676,102562,LA MONTANITA,,CRI,Provincia Guanacaste,Nicoya,San Antonio,-85.40819055201726,10.202532881766528
CRI-000677,102564,LAJAS,,CRI,Provincia Guanacaste,Hojancha,Puerto Carrillo,-85.45119032332752,9.993765156123679
CRI-000678,102569,LUCAS BRICENO FONSECA,,CRI,Provincia Guanacaste,Nicoya,Quebrada Honda,-85.30628816728142,10.140997602045692
CRI-000679,102575,MATAMBUGUITO,,CRI,Provincia Guanacaste,Nicoya,MansiÃ³n,-85.41063834200108,10.106359518397985
CRI-000680,102578,MANUEL CARDENAS CARDENAS,,CRI,Provincia Guanacaste,Nicoya,San Antonio,-85.39852897244356,10.238466422613827
CRI-000681,102579,RECAREDO BRICENO ARAUZ,,CRI,Provincia Guanacaste,Nicoya,MansiÃ³n,-85.35295790743102,10.150183149596192
CRI-000682,102580,FRAY BARTOLOME DE LAS CASAS,,CRI,Provincia Guanacaste,Nicoya,Nicoya,-85.50011813535208,10.206564666735693
CRI-000683,102581,NARANJAL,,CRI,Provincia Guanacaste,Nicoya,BelÃ©n de Nosarita,-85.54486091387926,9.975527152606915
CRI-000684,102582,NARANJALITO,,CRI,Provincia Guanacaste,Nicoya,BelÃ©n de Nosarita,-85.54362032040179,9.956107702411622
CRI-000685,102583,VICTORIANO MENA MENA,,CRI,Provincia Guanacaste,Hojancha,Hojancha,-85.41941217992799,10.059303257091798
CRI-000686,102584,ORIENTE,,CRI,Provincia Guanacaste,Nicoya,Nicoya,-85.52582080038734,10.187242668555225
CRI-000687,102585,PAVONES,,CRI,Provincia Guanacaste,Nandayure,San Pablo,-85.20678226045642,9.996493417088914
CRI-000688,102586,ARTURO SOLANO MONGE,,CRI,Provincia Guanacaste,Nicoya,Nicoya,-85.42334985827878,10.133797297324238
CRI-000689,102587,PILANGOSTA,,CRI,Provincia Guanacaste,Hojancha,Hojancha,-85.40200909660541,10.028548144736877
CRI-000690,102588,PILAS BLANCAS,,CRI,Provincia Guanacaste,Nicoya,Nicoya,-85.58479515566762,10.020130853336749
CRI-000691,102591,PITA RAYADA,,CRI,Provincia Guanacaste,Hojancha,Huacas,-85.38387283648584,10.041240839065471
CRI-000692,102592,POLVAZALES,,CRI,Provincia Guanacaste,Nicoya,MansiÃ³n,-85.39498477703131,10.100650985903739
CRI-000693,102594,POZO DE AGUA,,CRI,Provincia Guanacaste,Nicoya,San Antonio,-85.33851075720835,10.28508323248399
CRI-000694,102595,PUEBLO NUEVO,,CRI,Provincia Guanacaste,Nandayure,Bejuco,-85.33025769836858,9.835596784703142
CRI-000695,102596,PUEBLO NUEVO,,CRI,Provincia Guanacaste,Nicoya,SÃ¡mara,-85.57435989401851,9.949819077765959
CRI-000696,102597,CARLOS MILLER,,CRI,Provincia Guanacaste,Nicoya,MansiÃ³n,-85.34187567446793,10.117856042051498
CRI-000697,102598,PUERTO HUMO,,CRI,Provincia Guanacaste,Nicoya,San Antonio,-85.35205325152687,10.314910381607174
CRI-000698,102599,PUERTO THIEL,,CRI,Provincia Guanacaste,Nandayure,San Pablo,-85.20187167729354,10.025303441906402
CRI-000699,102600,QUEBRADA BONITA,,CRI,Provincia Guanacaste,Nicoya,BelÃ©n de Nosarita,-85.47464910848886,9.998409404823615
CRI-000700,102602,QUEBRADA GRANDE,,CRI,Provincia Guanacaste,Nandayure,Porvenir,-85.27532883296722,9.881552198276331
CRI-000701,102603,ANDRES BRICENO ACEVEDO,,CRI,Provincia Guanacaste,Nicoya,Quebrada Honda,-85.29723463059234,10.185467522734568
CRI-000702,102604,ANSELMO GUTIERREZ BRICENO,,CRI,Provincia Guanacaste,Nicoya,Nicoya,-85.50813420429198,10.11061564719892
CRI-000703,102606,RIO MONTANA,,CRI,Provincia Guanacaste,Nicoya,Nosara,-85.59868959183224,10.048781803190067
CRI-000704,102608,RUFINO CARRILLO TORRES,,CRI,Provincia Guanacaste,Nicoya,Quebrada Honda,-85.29497019784432,10.225952599401436
CRI-000705,102609,ROSARIO,,CRI,Provincia Guanacaste,Nicoya,San Antonio,-85.38767615690644,10.318368610758975
CRI-000706,102610,20 DE MARZO DE 1856,,CRI,Provincia Guanacaste,Nicoya,Nicoya,-85.48431099247992,10.186133174136968
CRI-000707,102611,SAMARA,,CRI,Provincia Guanacaste,Nicoya,SÃ¡mara,-85.52721959200291,9.881483822201982
CRI-000708,102612,LUIS DOBLES SEGREDA,,CRI,Provincia Guanacaste,Nicoya,San Antonio,-85.4308701752374,10.197974320797952
CRI-000709,102614,SAN GABRIEL,,CRI,Provincia Guanacaste,Nandayure,Bejuco,-85.33697413754828,9.896365067665853
CRI-000710,102617,ELIAS AIZA RIOS,,CRI,Provincia Guanacaste,Nicoya,San Antonio,-85.46258911305742,10.27153668348754
CRI-000711,102620,SAN MIGUEL,,CRI,Provincia Guanacaste,Hojancha,Puerto Carrillo,-85.4585467068722,9.976229562866877
CRI-000712,102621,NANDAYURE,,CRI,Provincia Guanacaste,Nandayure,San Pablo,-85.22937358163394,10.030953693883497
CRI-000713,102622,SAN PEDRO,,CRI,Provincia Guanacaste,Nandayure,Zapotal,-85.37866680459963,9.910430330568934
CRI-000714,102623,SAN RAFAEL,,CRI,Provincia Guanacaste,Hojancha,Hojancha,-85.43831143999283,10.009908344919221
CRI-000715,102624,SAN RAMON,,CRI,Provincia Guanacaste,Nicoya,BelÃ©n de Nosarita,-85.51728499390639,9.964523190799312
CRI-000716,102626,OMAR DENGO GUERRERO,,CRI,Provincia Guanacaste,Nicoya,Nicoya,-85.38645387785857,10.160731686404356
CRI-000717,102627,SANTA ELENA,,CRI,Provincia Guanacaste,Hojancha,Hojancha,-85.4709396802926,10.00772432115491
CRI-000718,102628,GUILLERMO ALVARADO HERNANDEZ,,CRI,Provincia Guanacaste,Nandayure,Santa Rita,-85.26218075346767,10.026272231548198
CRI-000719,102629,SANTO DOMINGO,,CRI,Provincia Guanacaste,Nicoya,SÃ¡mara,-85.5003356888014,9.899573670064221
CRI-000720,102632,TALOLINGA,,CRI,Provincia Guanacaste,Nicoya,San Antonio,-85.48088562063116,10.322112465894188
CRI-000721,102633,TERCIOPELO,,CRI,Provincia Guanacaste,Nicoya,SÃ¡mara,-85.51757111861424,9.93536555209589
CRI-000722,102634,VALEDOR MARTINEZ MARTINEZ,,CRI,Provincia Guanacaste,Nicoya,Nicoya,-85.4519297730579,10.114212850884963
CRI-000723,102638,ZAPOTE,,CRI,Provincia Guanacaste,Nicoya,San Antonio,-85.43221960968576,10.252650979240798
CRI-000724,102639,ZARAGOZA,,CRI,Provincia Guanacaste,Nicoya,BelÃ©n de Nosarita,-85.56655668557256,9.972425009812989
CRI-000725,102640,CERRO EL CHOMPIPE,,CRI,Provincia Guanacaste,Nandayure,Porvenir,-85.26074886647667,9.889347845468304
CRI-000726,102641,SAN JORGE,,CRI,Provincia Guanacaste,Nandayure,Bejuco,-85.24058271819283,9.828231721852891
CRI-000727,102643,EL SILENCIO,,CRI,Provincia Guanacaste,Nicoya,SÃ¡mara,-85.56590721596068,9.923316151438671
CRI-000728,102644,RIO DE ORO,,CRI,Provincia Guanacaste,Nandayure,Zapotal,-85.35323588200403,9.999103846536341
CRI-000729,102645,SAN FRANCISCO,,CRI,Provincia Guanacaste,Nicoya,BelÃ©n de Nosarita,-85.49749419438652,9.953334105127954
CRI-000730,102650,ALEMANIA,,CRI,Provincia Guanacaste,Santa Cruz,Cuajiniquil,-85.69448857222339,10.091634138511152
CRI-000731,102652,ARTOLA,,CRI,Provincia Guanacaste,Carrillo,Sardinal,-85.68379785710593,10.509782802241745
CRI-000732,102653,PLAYA HERMOSA,,CRI,Provincia Guanacaste,Carrillo,Sardinal,-85.67666873649463,10.570980914396275
CRI-000733,102654,BEJUCO,,CRI,Provincia Guanacaste,Santa Cruz,Tempate,-85.72518911550935,10.37662088181637
CRI-000734,102657,ALTOS DEL ROBLE,,CRI,Provincia Guanacaste,Carrillo,Sardinal,-85.62092103553381,10.610862047330775
CRI-000735,102658,CANAFISTULA,,CRI,Provincia Guanacaste,Santa Cruz,Tamarindo,-85.78123525903527,10.24924383285309
CRI-000736,102660,CASTILLA DE ORO,,CRI,Provincia Guanacaste,Carrillo,BelÃ©n,-85.60502345284156,10.446742771496849
CRI-000737,102662,COYOLITO,,CRI,Provincia Guanacaste,Carrillo,BelÃ©n,-85.64761912101181,10.36224351912927
CRI-000738,102663,CHIRCO,,CRI,Provincia Guanacaste,Santa Cruz,Santa Cruz,-85.63650645419911,10.273309223872008
CRI-000739,102664,BENITO JUAREZ GARCIA,,CRI,Provincia Guanacaste,Santa Cruz,Santa Cruz,-85.59649220839881,10.222126873782079
CRI-000740,102665,CARTAGENA,,CRI,Provincia Guanacaste,Santa Cruz,Cartagena,-85.67501383475118,10.380231930710016
CRI-000741,102668,FRANCISCO CHAVES CHAVES,,CRI,Provincia Guanacaste,Santa Cruz,Santa Cruz,-85.56278110138642,10.329045092491766
CRI-000742,102670,BRASILITO,,CRI,Provincia Guanacaste,Santa Cruz,Cabo Velas,-85.79660483707927,10.407670598158614
CRI-000743,102674,DIRIA,,CRI,Provincia Guanacaste,Santa Cruz,DiriÃ¡,-85.53325429773673,10.238489332332666
CRI-000744,102675,FILADELFIA,,CRI,Provincia Guanacaste,Carrillo,Filadelfia,-85.55069348575455,10.44580805733725
CRI-000745,102677,FLORIDA,,CRI,Provincia Guanacaste,Santa Cruz,Veintisiete de Abril,-85.75688552723024,10.14296078741513
CRI-000746,102678,HUACAS,,CRI,Provincia Guanacaste,Santa Cruz,Tempate,-85.77389788191891,10.366772531833805
CRI-000747,102679,LINDEROS,,CRI,Provincia Guanacaste,Santa Cruz,Tamarindo,-85.77231870683306,10.288053003842695
CRI-000748,102680,MERCEDES ORTEGA HERNANDEZ,,CRI,Provincia Guanacaste,Santa Cruz,BolsÃ³n,-85.46160654863611,10.361308688434873
CRI-000749,102681,PALMIRA,,CRI,Provincia Guanacaste,Carrillo,Palmira,-85.57537340753288,10.514205134176402
CRI-000750,102684,PORTEGOLPE,,CRI,Provincia Guanacaste,Santa Cruz,Tempate,-85.73302400116174,10.345226429163597
CRI-000751,102686,RIO SECO,,CRI,Provincia Guanacaste,Santa Cruz,Veintisiete de Abril,-85.75886532107033,10.211144266164034
CRI-000752,102689,SANTA ROSA,,CRI,Provincia Guanacaste,Santa Cruz,Tamarindo,-85.78910954567965,10.312660466488976
CRI-000753,102690,DIONISIO LEAL VALLEJOS,,CRI,Provincia Guanacaste,Santa Cruz,Tempate,-85.72141066524013,10.413504996806704
CRI-000754,102691,VERACRUZ,,CRI,Provincia Guanacaste,Santa Cruz,Cuajiniquil,-85.75232632579596,10.060075507169833
CRI-000755,102692,VILLARREAL,,CRI,Provincia Guanacaste,Santa Cruz,Tamarindo,-85.8037912027526,10.304428958948058
CRI-000756,102694,PASO HONDO,,CRI,Provincia Guanacaste,Santa Cruz,Veintisiete de Abril,-85.6939614855843,10.2455841217704
CRI-000757,102696,ESPABELAR,,CRI,Provincia Guanacaste,Santa Cruz,Cuajiniquil,-85.73342243009728,10.117069049570024
CRI-000758,102698,GUAITIL,,CRI,Provincia Guanacaste,Santa Cruz,DiriÃ¡,-85.51053629206092,10.266411668549987
CRI-000759,102699,HATILLO,,CRI,Provincia Guanacaste,Santa Cruz,Veintisiete de Abril,-85.71376204961702,10.299855806130868
CRI-000760,102700,JAZMINAL,,CRI,Provincia Guanacaste,Santa Cruz,Cuajiniquil,-85.65462002680006,10.051915128447295
CRI-000761,102702,HERNANDEZ,,CRI,Provincia Guanacaste,Santa Cruz,Tamarindo,-85.7903679843082,10.278204698469441
CRI-000762,102708,LAGARTO,,CRI,Provincia Guanacaste,Santa Cruz,Cuajiniquil,-85.79350120473042,10.12051100837055
CRI-000763,102709,PUERTO RICO,,CRI,Provincia Guanacaste,Santa Cruz,Santa Cruz,-85.64814355930767,10.266485213892498
CRI-000764,102711,RIO CANAS VIEJO,,CRI,Provincia Guanacaste,Santa Cruz,Santa Cruz,-85.56368395270181,10.351829732340303
CRI-000765,102713,LORENA,,CRI,Provincia Guanacaste,Santa Cruz,Cartagena,-85.71102524949775,10.360253130717398
CRI-000766,102716,MARBELLA,,CRI,Provincia Guanacaste,Santa Cruz,Cuajiniquil,-85.76258546552981,10.084060474728933
CRI-000767,102717,MATAPALO,,CRI,Provincia Guanacaste,Santa Cruz,Cabo Velas,-85.81145054348907,10.363154202154126
CRI-000768,102718,MARIA LEAL RODRIGUEZ,,CRI,Provincia Guanacaste,Santa Cruz,Santa Cruz,-85.59095640052281,10.255825217814454
CRI-000769,102719,ESTOCOLMO,,CRI,Provincia Guanacaste,Santa Cruz,Santa Cruz,-85.5826384878682,10.271866930618629
CRI-000770,102721,OSTIONAL,,CRI,Provincia Guanacaste,Santa Cruz,Cuajiniquil,-85.70298641937396,9.99795264989214
CRI-000771,102722,PALESTINA,,CRI,Provincia Guanacaste,Carrillo,BelÃ©n,-85.58320598410482,10.385718186656954
CRI-000772,102723,PASO TEMPISQUE,,CRI,Provincia Guanacaste,Carrillo,Palmira,-85.57184452098245,10.498352912743238
CRI-000773,102725,IGNACIO GUTIERREZ,,CRI,Provincia Guanacaste,Carrillo,Sardinal,-85.61777353179913,10.483540890072675
CRI-000774,102726,SAN FRANCISCO,,CRI,Provincia Guanacaste,Santa Cruz,Veintisiete de Abril,-85.74380248313287,10.27000170129874
CRI-000775,102729,SAN JUAN,,CRI,Provincia Guanacaste,Santa Cruz,Santa Cruz,-85.55683947280122,10.218423192205233
CRI-000776,102730,SAN JUANILLO,,CRI,Provincia Guanacaste,Santa Cruz,Cuajiniquil,-85.74129251867026,10.033324419592711
CRI-000777,102731,SAN PEDRO,,CRI,Provincia Guanacaste,Santa Cruz,Santa Cruz,-85.67508544389112,10.272754065214398
CRI-000778,102732,OMAR DENGO GUERRERO,,CRI,Provincia Guanacaste,Carrillo,BelÃ©n,-85.6198782191092,10.389034765857895
CRI-000779,102733,SANTO DOMINGO,,CRI,Provincia Guanacaste,Carrillo,BelÃ©n,-85.60299747063621,10.41275781156391
CRI-000780,102734,BERNARDO GUTIERREZ,,CRI,Provincia Guanacaste,Carrillo,Sardinal,-85.64584845323574,10.516013761273948
CRI-000781,102735,OBANDITO,,CRI,Provincia Guanacaste,Carrillo,Sardinal,-85.66026473269838,10.504234163781453
CRI-000782,102736,JOSEFINA LOPEZ BONILLA,,CRI,Provincia Guanacaste,Santa Cruz,Santa Cruz,-85.58751449493356,10.263355395132553
CRI-000783,102737,TALOLINGUITA,,CRI,Provincia Guanacaste,Santa Cruz,DiriÃ¡,-85.49762807281172,10.306551340457288
CRI-000784,102738,VENADO,,CRI,Provincia Guanacaste,Santa Cruz,Veintisiete de Abril,-85.78829434890925,10.139977882444652
CRI-000785,102741,GUAYABAL,,CRI,Provincia Guanacaste,Santa Cruz,Santa Cruz,-85.56682207108516,10.256631078711257
CRI-000786,102742,SANTA RITA,,CRI,Provincia Guanacaste,Carrillo,Sardinal,-85.63395138248518,10.530121221673172
CRI-000787,102750,ARENAL,,CRI,Provincia Guanacaste,Tilaran,Arenal,-84.8952880384379,10.546465191742653
CRI-000788,102751,ARIZONA,,CRI,Provincia Guanacaste,Abangares,San Juan,-84.95349481596067,10.196705492968174
CRI-000789,102757,BEBEDERO,,CRI,Provincia Guanacaste,Canas,Bebedero,-85.19384245261884,10.369444121508696
CRI-000790,102764,MONSENOR LUIS LEIPOLD,,CRI,Provincia Guanacaste,Canas,CaÃ±as,-85.0915542973914,10.429129405227654
CRI-000791,102767,CAMPOS DE ORO,,CRI,Provincia Guanacaste,Abangares,Sierra,-84.91937830281302,10.371459118755668
CRI-000792,102770,PASO LAJAS,,CRI,Provincia Guanacaste,Canas,CaÃ±as,-85.09254574936793,10.390255927702745
CRI-000793,102771,COLORADO,,CRI,Provincia Guanacaste,Abangares,Colorado,-85.10875750966318,10.184563370343293
CRI-000794,102774,COROBICI,,CRI,Provincia Guanacaste,Canas,Palmira,-85.08745102267785,10.544036837376835
CRI-000795,102782,SAN LUIS,,CRI,Provincia Guanacaste,Tilaran,TilarÃ¡n,-84.94236885184422,10.50323316176949
CRI-000796,102783,RAIZAL,,CRI,Provincia Guanacaste,Abangares,Colorado,-85.07791351762575,10.18761969465402
CRI-000797,102794,BELLO HORIZONTE,,CRI,Provincia Guanacaste,Canas,CaÃ±as,-85.07597905497155,10.433139702556218
CRI-000798,102801,TRES AMIGOS,,CRI,Provincia Guanacaste,Abangares,Sierra,-84.92915429991548,10.301532009055672
CRI-000799,102804,LOURDES,,CRI,Provincia Guanacaste,Abangares,San Juan,-84.93687603782791,10.183024170504483
CRI-000800,102808,RANCHITOS,,CRI,Provincia Guanacaste,Tilaran,Santa Rosa,-84.99505800122077,10.501556774638832
CRI-000801,102811,SAN LUIS,,CRI,Provincia Guanacaste,Canas,CaÃ±as,-85.08788123844086,10.416474563152708
CRI-000802,102812,SAN CRISTOBAL,,CRI,Provincia Guanacaste,Canas,CaÃ±as,-85.09006076365735,10.422277174568446
CRI-000803,102813,POROZAL,,CRI,Provincia Guanacaste,Canas,Porozal,-85.19588963251525,10.260845107462274
CRI-000804,102814,POZO AZUL,,CRI,Provincia Guanacaste,Abangares,San Juan,-84.90537310488325,10.187990175140943
CRI-000805,102816,QUEBRADA GRANDE,,CRI,Provincia Guanacaste,Tilaran,Quebrada Grande,-84.9448359922241,10.431190726618876
CRI-000806,102819,RIO PIEDRAS,,CRI,Provincia Guanacaste,Tilaran,Tierras Morenas,-84.97016302330223,10.560480021235692
CRI-000807,102822,CANDELARIA,,CRI,Provincia Guanacaste,Abangares,Sierra,-84.91120135219083,10.348359772545084
CRI-000808,102824,SAN BUENAVENTURA,,CRI,Provincia Guanacaste,Abangares,Colorado,-85.15507946371378,10.189447147131277
CRI-000809,102825,LAS PARCELAS,,CRI,Provincia Guanacaste,Tilaran,Arenal,-84.89274383261498,10.553893978794733
CRI-000810,102826,SAN ISIDRO,,CRI,Provincia Guanacaste,Canas,Palmira,-85.14028474816384,10.498207572157662
CRI-000811,102828,SAN JUAN,,CRI,Provincia Guanacaste,Canas,San Miguel,-85.03924407961598,10.381037815494759
CRI-000812,102829,SAN MIGUEL,,CRI,Provincia Guanacaste,Canas,San Miguel,-85.07888618041561,10.353973498916492
CRI-000813,102830,SAN MIGUEL,,CRI,Provincia Guanacaste,Tilaran,Quebrada Grande,-84.92790427901214,10.411110463680664
CRI-000814,102831,SAN RAFAEL,,CRI,Provincia Guanacaste,Abangares,Sierra,-84.87912411749072,10.343400696998506
CRI-000815,102833,SANTA LUCIA,,CRI,Provincia Guanacaste,Canas,Porozal,-85.19070552079882,10.239574964504538
CRI-000816,102834,NUEVA GUATEMALA,,CRI,Provincia Guanacaste,Canas,Palmira,-85.05899812514456,10.639119890435145
CRI-000817,102835,SOLANIA,,CRI,Provincia Guanacaste,Tilaran,LÃ­bano,-84.99050072877496,10.372467875890791
CRI-000818,102836,JAIME GUTIERREZ BRAUN,,CRI,Provincia Guanacaste,Tilaran,Tierras Morenas,-85.02598680327766,10.570573106528213
CRI-000819,102837,JOSE MARIA CALDERON,,CRI,Provincia Guanacaste,Tilaran,TilarÃ¡n,-84.967710837305,10.471260793490833
CRI-000820,102838,TRES HERMANOS,,CRI,Provincia Guanacaste,Abangares,Sierra,-84.92444109205294,10.323402624527134
CRI-000821,102839,TRONADORA,,CRI,Provincia Guanacaste,Tilaran,Tronadora,-84.92163222595039,10.500043664417552
CRI-000822,102841,CANITAS,,CRI,Provincia Puntarenas,Abangares,Sierra,-84.84365145146933,10.327584049119475
CRI-000823,102842,BUENOS AIRES,,CRI,Provincia Guanacaste,Canas,San Miguel,-85.05551963022728,10.331168450374879
CRI-000824,102843,HIGUERILLAS,,CRI,Provincia Guanacaste,Abangares,Colorado,-85.03954453899321,10.188610103183994
CRI-000825,102846,ABANGARITOS,,CRI,Provincia Puntarenas,Puntarenas,Manzanillo,-85.03861419417551,10.157396164416678
CRI-000826,102848,LA FLORIDA,,CRI,Provincia Puntarenas,Puntarenas,Lepanto,-85.05642610955157,9.981532795929905
CRI-000827,102849,PLAYA BLANCA,,CRI,Provincia Puntarenas,Puntarenas,Paquera,-84.92212667677332,9.91839571977681
CRI-000828,102850,BELLO HORIZONTE,,CRI,Provincia Puntarenas,Puntarenas,CÃ³bano,-85.20098060239592,9.690999625671568
CRI-000829,102851,SANTA TERESA,,CRI,Provincia Puntarenas,Puntarenas,CÃ³bano,-85.16339754716476,9.639421677809136
CRI-000830,102852,I.D.A. VALLE AZUL,,CRI,Provincia Puntarenas,Puntarenas,Paquera,-84.95594254306809,9.776347213761953
CRI-000831,102855,LA COLINA,,CRI,Provincia Puntarenas,Puntarenas,Chomes,-84.88480817335727,10.142568909890711
CRI-000832,102856,ARANJUECITO,,CRI,Provincia Puntarenas,Puntarenas,Acapulco,-84.76567853347842,10.184740101773867
CRI-000833,102857,ARANJUEZ,,CRI,Provincia Puntarenas,Puntarenas,Pitahaya,-84.79755189879758,10.055756472555185
CRI-000834,102859,AUGUSTO COLOMBARI CHICOLI,,CRI,Provincia Puntarenas,Puntarenas,Barranca,-84.71279109737524,9.988866256491338
CRI-000835,102861,LINDA VISTA,,CRI,Provincia Puntarenas,Montes de Oro,Miramar,-84.72683200761983,10.084724943851963
CRI-000836,102863,BAJO CALIENTE,,CRI,Provincia Puntarenas,Montes de Oro,Arancibia,-84.72181709904979,10.203937975189572
CRI-000837,102864,BAJOS DE ARIO,,CRI,Provincia Puntarenas,Puntarenas,CÃ³bano,-85.20138773818296,9.733337164100762
CRI-000838,102866,JUANITO MORA PORRAS,,CRI,Provincia Puntarenas,Puntarenas,Barranca,-84.72577662945838,9.97412799826875
CRI-000839,102867,ACAPULCO,,CRI,Provincia Puntarenas,Puntarenas,Acapulco,-84.84485661583672,10.14111133746693
CRI-000840,102869,VILLA BRUSELAS,,CRI,Provincia Puntarenas,Puntarenas,Pitahaya,-84.797990430888,10.088983741374095
CRI-000841,102873,CONFEDERACION SUIZA,,CRI,Provincia Puntarenas,Puntarenas,CÃ³bano,-85.05420101018719,9.701229496029786
CRI-000842,102874,SAN JUAN CHIQUITO,,CRI,Provincia Puntarenas,Esparza,San Juan Grande,-84.64091061129425,9.988435808024871
CRI-000843,102875,LA GUARIA,,CRI,Provincia Puntarenas,Puntarenas,Barranca,-84.70571105264709,9.995351041186021
CRI-000844,102876,CALDERA,,CRI,Provincia Puntarenas,Esparza,Caldera,-84.72246272229516,9.933984176745668
CRI-000845,102877,RIO BARRANCA,,CRI,Provincia Puntarenas,Puntarenas,Barranca,-84.69746146262158,9.995354634153014
CRI-000846,102879,CARMEN LYRA,,CRI,Provincia Puntarenas,Puntarenas,CÃ³bano,-85.103746598336,9.689138596890981
CRI-000847,102881,CERRILLOS,,CRI,Provincia Puntarenas,Esparza,San JerÃ³nimo,-84.6534459815048,10.083983144994775
CRI-000848,102883,TIVIVES,,CRI,Provincia Puntarenas,Esparza,Caldera,-84.70725851808211,9.879964357110637
CRI-000849,102884,CIRUELAS,,CRI,Provincia Puntarenas,Montes de Oro,San Isidro,-84.75952765608996,10.061412732052695
CRI-000850,102892,PUNTA CUCHILLO,,CRI,Provincia Puntarenas,Puntarenas,Paquera,-84.8878707695891,9.832573545815425
CRI-000851,102893,CABO BLANCO,,CRI,Provincia Puntarenas,Puntarenas,Lepanto,-84.99556191263886,9.932025078514974
CRI-000852,102894,CABUYA,,CRI,Provincia Puntarenas,Puntarenas,CÃ³bano,-85.08807708995006,9.60301814819957
CRI-000853,102895,CAMARONAL,,CRI,Provincia Puntarenas,Puntarenas,Lepanto,-85.10339993426345,9.93639570655571
CRI-000854,102896,CAMBALACHE,,CRI,Provincia Puntarenas,Esparza,Caldera,-84.67768762074923,9.925847640777944
CRI-000855,102899,RAFAEL ARGUEDAS HERRERA,,CRI,Provincia Puntarenas,Puntarenas,Monte Verde,-84.81679817421418,10.313776027036146
CRI-000856,102900,CHAPERNAL,,CRI,Provincia Puntarenas,Puntarenas,Pitahaya,-84.82498924364576,10.060060745028766
CRI-000857,102902,NORA MARIA QUESADA CHAVARRIA,,CRI,Provincia Puntarenas,Puntarenas,Chomes,-84.9079252130937,10.04463872317493
CRI-000858,102903,TOBIAS MONTERO CASCANTE,,CRI,Provincia Puntarenas,Puntarenas,Lepanto,-85.15286127705593,9.9919054238782
CRI-000859,102904,COYOLITO,,CRI,Provincia Guanacaste,Puntarenas,Manzanillo,-84.98071046844892,10.143445547667854
CRI-000860,102906,CUAJINIQUIL,,CRI,Provincia Puntarenas,Puntarenas,Lepanto,-85.1821471920458,9.923481821015185
CRI-000861,102907,DOMINICA,,CRI,Provincia Puntarenas,Puntarenas,Lepanto,-85.1039001084899,9.919884246995988
CRI-000862,102911,ROSARIO VASQUEZ MONGE,,CRI,Provincia Puntarenas,Esparza,San Juan Grande,-84.6604725457977,9.969805905015384
CRI-000863,102912,LINDORA,,CRI,Provincia Puntarenas,Puntarenas,Monte Verde,-84.83649616835653,10.283817624908252
CRI-000864,102916,MESETAS ABAJO,,CRI,Provincia Puntarenas,Esparza,San JerÃ³nimo,-84.67562419502805,10.041942594693648
CRI-000865,102917,MONTANA GRANDE,,CRI,Provincia Puntarenas,Puntarenas,Lepanto,-85.03779304078449,9.908214683648003
CRI-000866,102918,MOCTEZUMA,,CRI,Provincia Puntarenas,Puntarenas,CÃ³bano,-85.06685191747275,9.655534358146191
CRI-000867,102919,OJO DE AGUA,,CRI,Provincia Puntarenas,Puntarenas,Arancibia,-84.71005274212175,10.225840954411524
CRI-000868,102921,SALINAS,,CRI,Provincia Puntarenas,Esparza,Caldera,-84.69257710700968,9.929962012867097
CRI-000869,102922,SAN BLAS,,CRI,Provincia Puntarenas,Puntarenas,Lepanto,-85.16674941664239,9.87047681995878
CRI-000870,102923,SANTA CECILIA,,CRI,Provincia Puntarenas,Puntarenas,Paquera,-84.95400111805377,9.806585490453719
CRI-000871,102924,SANTA CLEMENCIA,,CRI,Provincia Puntarenas,Puntarenas,CÃ³bano,-85.137212574028,9.705216693331755
CRI-000872,102925,JORGE BORBON CASTRO,,CRI,Provincia Puntarenas,Puntarenas,Acapulco,-84.82650140690801,10.117071623605582
CRI-000873,102926,SAN ISIDRO,,CRI,Provincia Puntarenas,Puntarenas,CÃ³bano,-85.13363110753322,9.652357652722186
CRI-000874,102927,TEODORO SALAMANCA,,CRI,Provincia Puntarenas,Puntarenas,CÃ³bano,-85.01887190796481,9.718100477088763
CRI-000875,102928,ZAPOTAL,,CRI,Provincia Puntarenas,San Ramon,Zapotal,-84.67757359291947,10.17767265051441
CRI-000876,102929,DELIA URBINA DE GUEVARA,,CRI,Provincia Puntarenas,Puntarenas,Puntarenas,-84.83497672150695,9.97837001646777
CRI-000877,102932,EL BRILLANTE,,CRI,Provincia Puntarenas,Puntarenas,Pitahaya,-84.79872557633793,10.094873321809981
CRI-000878,102934,VILLA NUEVA,,CRI,Provincia Puntarenas,Esparza,Caldera,-84.6887655039536,9.92220178017106
CRI-000879,102938,LA ESPERANZA,,CRI,Provincia Puntarenas,Puntarenas,Paquera,-85.0047060640266,9.905697707751457
CRI-000880,102939,JUSTO ANTONIO FACIO,,CRI,Provincia Puntarenas,Esparza,San Rafael,-84.58886132808563,9.995222595714136
CRI-000881,102942,GREGORIO PRENDAS MONTERO,,CRI,Provincia Puntarenas,Montes de Oro,Miramar,-84.754837954372,10.087175856712673
CRI-000882,102943,GUADALUPE,,CRI,Provincia Puntarenas,Puntarenas,Lepanto,-85.0895573590138,9.834597919060656
CRI-000883,102945,JOSE MARIA ZELEDON BRENES,,CRI,Provincia Puntarenas,Montes de Oro,Miramar,-84.73205769336384,10.09001960786898
CRI-000884,102946,JOSE RICARDO ORLICH ZAMORA,,CRI,Provincia Puntarenas,Puntarenas,Chacarita,-84.77256615196173,9.980458945257526
CRI-000885,102947,JUAN RAFAEL JIMENEZ GRANADOS,,CRI,Provincia Puntarenas,Esparza,San Rafael,-84.60986333984404,9.979557113977071
CRI-000886,102948,JUDAS,,CRI,Provincia Puntarenas,Puntarenas,Chomes,-84.89466917748226,10.11298711931733
CRI-000887,102949,JULIO ACOSTA GARCIA,,CRI,Provincia Puntarenas,Puntarenas,Paquera,-84.93330403973087,9.817354033164948
CRI-000888,102955,LOS MANGOS,,CRI,Provincia Puntarenas,Puntarenas,CÃ³bano,-85.11722375402718,9.681734548717285
CRI-000889,102956,EL PROGRESO,,CRI,Provincia Puntarenas,Puntarenas,Barranca,-84.73070925675985,9.976345661870184
CRI-000890,102961,PEDRO ROSALES REYES,,CRI,Provincia Puntarenas,Puntarenas,Lepanto,-85.1941658000239,9.961995078980648
CRI-000891,102968,MANZANILLO,,CRI,Provincia Puntarenas,Puntarenas,Manzanillo,-85.01947517646607,10.131577550127687
CRI-000892,102969,MARANONAL,,CRI,Provincia Puntarenas,Esparza,EspÃ­ritu Santo,-84.65816049972277,10.001701431856567
CRI-000893,102970,MARATON,,CRI,Provincia Puntarenas,Esparza,San Rafael,-84.57046593398411,10.000332080894871
CRI-000894,102971,FLORA GUEVARA BARAHONA,,CRI,Provincia Puntarenas,Puntarenas,Chacarita,-84.75605373352144,9.979710592178469
CRI-000895,102972,MOJONCITO,,CRI,Provincia Puntarenas,Esparza,EspÃ­ritu Santo,-84.69846968672087,9.990958375218566
CRI-000896,102973,MORA Y CANAS,,CRI,Provincia Puntarenas,Puntarenas,Puntarenas,-84.81584491026487,9.980365961292062
CRI-000897,102975,ARTURO GARCIA GOLCHER,,CRI,Provincia Puntarenas,Puntarenas,Chomes,-84.95074997055934,10.070465186277351
CRI-000898,102976,MORALES,,CRI,Provincia Puntarenas,Puntarenas,Chomes,-84.95295133279967,10.091664697722214
CRI-000899,102977,HERIBERTO ZELEDON RODRIGUEZ,,CRI,Provincia Puntarenas,Esparza,Macacona,-84.64620243491899,9.99531176269952
CRI-000900,102979,SAN MIGUELITO,,CRI,Provincia Puntarenas,Puntarenas,Barranca,-84.70813690965134,10.01126548174124
CRI-000901,102980,EL PALMAR,,CRI,Provincia Puntarenas,Puntarenas,Puntarenas,-84.75193942603832,10.02458745690472
CRI-000902,102983,PELAYO MARCET CASAJUANA,,CRI,Provincia Puntarenas,Puntarenas,Guacimal,-84.84836160998252,10.208963207564777
CRI-000903,102984,PITAHAYA,,CRI,Provincia Puntarenas,Puntarenas,Pitahaya,-84.80966811748071,10.020186063980066
CRI-000904,102985,POCHOTE,,CRI,Provincia Puntarenas,Puntarenas,Paquera,-84.99300270160559,9.751638294636422
CRI-000905,102986,DR. RICARDO MORENO CANAS,,CRI,Provincia Puntarenas,Puntarenas,Lepanto,-85.11589143252154,9.96270728491532
CRI-000906,102991,SAN MIGUEL,,CRI,Provincia Puntarenas,Puntarenas,Lepanto,-85.11040377736681,9.883837864162551
CRI-000907,102992,SAN ANTONIO,,CRI,Provincia Puntarenas,Puntarenas,Guacimal,-84.82044067895936,10.223093264369457
CRI-000908,102994,SABANA BONITA,,CRI,Provincia Puntarenas,Esparza,San JerÃ³nimo,-84.67305682426243,10.091809390008343
CRI-000909,102995,SAN FERNANDO,,CRI,Provincia Puntarenas,Puntarenas,Paquera,-85.09358706975806,9.79679437424676
CRI-000910,102998,SAN PEDRO,,CRI,Provincia Puntarenas,Puntarenas,Lepanto,-85.14492384763476,9.954610458978323
CRI-000911,103001,SANTA ELENA,,CRI,Provincia Puntarenas,Puntarenas,Monte Verde,-84.82501316749254,10.321711193657874
CRI-000912,103002,SANTA ROSA,,CRI,Provincia Puntarenas,Puntarenas,Acapulco,-84.81594184082813,10.185415132601822
CRI-000913,103003,DOMINGO FAUSTINO SARMIENTO,,CRI,Provincia Puntarenas,Puntarenas,Chomes,-84.88178371164517,10.156616106455091
CRI-000914,103004,SAN ISIDRO,,CRI,Provincia Puntarenas,Montes de Oro,San Isidro,-84.72997891812891,10.059750737695627
CRI-000915,103005,SAN MIGUEL,,CRI,Provincia Puntarenas,Puntarenas,Barranca,-84.69708970772372,10.013880823348128
CRI-000916,103006,SAN RAFAEL,,CRI,Provincia Puntarenas,Puntarenas,Paquera,-84.98502548889513,9.803635315608549
CRI-000917,103007,SAN RAFAEL,,CRI,Provincia Puntarenas,Puntarenas,Lepanto,-85.16776633110283,9.888911090227465
CRI-000918,103008,SANTA ROSA,,CRI,Provincia Puntarenas,Montes de Oro,San Isidro,-84.73890085655702,10.03767911589037
CRI-000919,103009,TAJO ALTO,,CRI,Provincia Puntarenas,Montes de Oro,Miramar,-84.72396846990416,10.131083470082512
CRI-000920,103011,ZAGALA VIEJA,,CRI,Provincia Puntarenas,Montes de Oro,Miramar,-84.78464108366461,10.099111200316162
CRI-000921,103017,VEINTE DE NOVIEMBRE,,CRI,Provincia Puntarenas,Puntarenas,,-84.76765679908229,9.984222171223415
CRI-000922,103023,LA BOTA,,CRI,Provincia Puntarenas,Corredores,La Cuesta,-82.887534071482,8.471300409661131
CRI-000923,103025,LA CHIVA,,CRI,Provincia Puntarenas,Coto Brus,,-83.09644763703672,8.841438953696173
CRI-000924,103027,VIQUILLA DOS,,CRI,Provincia Puntarenas,Golfito,GuaycarÃ¡,-83.10092192405614,8.675172124527679
CRI-000925,103033,CENIZO,,CRI,Provincia Puntarenas,Corredores,Laurel,-82.94048893130227,8.444669794143238
CRI-000926,103036,BARRIO NUEVO,,CRI,Provincia Puntarenas,Corredores,Canoas,-82.88342016770193,8.586350541788041
CRI-000927,103038,BELLO ORIENTE,,CRI,Provincia Puntarenas,Coto Brus,,-82.94253914846607,8.71551684382706
CRI-000928,103039,VILLA ROMA,,CRI,Provincia Puntarenas,Corredores,Corredor,-82.90208573367364,8.723412650196725
CRI-000929,103040,SANTA ROSA,,CRI,Provincia Puntarenas,Corredores,Laurel,-83.01314000321634,8.38869899583968
CRI-000930,103042,ALVARO PARIS STEFFENS,,CRI,Provincia Puntarenas,Golfito,Golfito,-83.15391380116485,8.626912959756968
CRI-000931,103046,SAN ISIDRO,,CRI,Provincia Puntarenas,Corredores,Canoas,-82.8582876629061,8.581019061592391
CRI-000932,103048,VALLE HERMOSO,,CRI,Provincia Puntarenas,Coto Brus,,-82.89907897332479,8.845628392246672
CRI-000933,103050,ALTAMIRA,,CRI,Provincia Puntarenas,Golfito,PavÃ³n,-83.11060926826696,8.376277235709999
CRI-000934,103052,PUEBLO NUEVO,,CRI,Provincia Puntarenas,Coto Brus,,-82.95247682095915,8.735499431204369
CRI-000935,103056,SAN MARTIN,,CRI,Provincia Puntarenas,Corredores,Canoas,-82.83469729354701,8.569397202642312
CRI-000936,103060,BRASILIA,,CRI,Provincia Puntarenas,Coto Brus,,-82.89253435128599,8.800073269532794
CRI-000937,103062,BETANIA,,CRI,Provincia Puntarenas,Coto Brus,,-83.07683097822424,8.853964946632091
CRI-000938,103063,NGOBEGUE,,CRI,Provincia Puntarenas,Coto Brus,,-83.07275547088437,8.838560844054898
CRI-000939,103064,EL TRIUNFO,,CRI,Provincia Puntarenas,Corredores,Canoas,-82.8570739294668,8.561245571233362
CRI-000940,103065,BAHIA DE PAVON,,CRI,Provincia Puntarenas,Golfito,PavÃ³n,-83.10381209858966,8.425586598292508
CRI-000941,103068,LINDA MAR,,CRI,Provincia Puntarenas,Golfito,PavÃ³n,-83.09573757338532,8.468433730029416
CRI-000942,103071,LA HIERBA,,CRI,Provincia Puntarenas,Golfito,PavÃ³n,-83.09662223587554,8.393143663871093
CRI-000943,103074,LA AMISTAD,,CRI,Provincia Puntarenas,Coto Brus,,-82.97831120975897,8.809243208422757
CRI-000944,103076,BAJO DE LOS INDIOS,,CRI,Provincia Puntarenas,Corredores,Corredor,-82.87492211075164,8.667580050430834
CRI-000945,103077,VALLE AZUL,,CRI,Provincia Puntarenas,Coto Brus,,-82.92826632803299,8.76503019959969
CRI-000946,103079,TRES RIOS,,CRI,Provincia Puntarenas,Coto Brus,,-82.96489490493376,8.8151549175628
CRI-000947,103080,LA VIRGEN,,CRI,Provincia Puntarenas,Golfito,PavÃ³n,-83.08267644455366,8.48086026878624
CRI-000948,103081,I.D.A. PORTO LLANO,,CRI,Provincia Puntarenas,Coto Brus,,-82.86127183596598,8.856831151185178
CRI-000949,103083,CUERVITO,,CRI,Provincia Puntarenas,Golfito,PavÃ³n,-83.0716190097819,8.438364261248434
CRI-000950,103085,SANTA MARTA,,CRI,Provincia Puntarenas,Coto Brus,Potrero Grande,-83.08244503025148,8.874864250631491
CRI-000951,103086,MIRAFLORES,,CRI,Provincia Puntarenas,Coto Brus,,-82.92437721198401,8.834106083361581
CRI-000952,103090,BOCA GALLARDO,,CRI,Provincia Puntarenas,Puerto Jimenez,Puerto JimÃ©nez,-83.36037746054748,8.542353211373307
CRI-000953,103098,CANAS GORDAS,,CRI,Provincia Puntarenas,Coto Brus,,-82.91961275496374,8.745111583322942
CRI-000954,103101,CANAZA,,CRI,Provincia Puntarenas,Puerto Jimenez,Puerto JimÃ©nez,-83.41156222561919,8.582145921181581
CRI-000955,103102,LA NUBIA,,CRI,Provincia Puntarenas,Corredores,Laurel,-82.97107999494406,8.510866186272079
CRI-000956,103104,COTO SUR,,CRI,Provincia Puntarenas,Corredores,Laurel,-82.97128268500921,8.474879817788345
CRI-000957,103105,SURIK,,CRI,Provincia Puntarenas,Corredores,La Cuesta,-82.8712649675475,8.453336257706766
CRI-000958,103108,QUEBRADA LA TARDE,,CRI,Provincia Puntarenas,Puerto Jimenez,Puerto JimÃ©nez,-83.48621219517595,8.577653572406211
CRI-000959,103109,SAN ISIDRO,,CRI,Provincia Puntarenas,Coto Brus,,-82.96239337448065,8.71863166004368
CRI-000960,103110,CAMPO DOS Y MEDIO,,CRI,Provincia Puntarenas,Corredores,Corredor,-82.9342597834708,8.697427107764929
CRI-000961,103111,CAMPO TRES,,CRI,Provincia Puntarenas,Coto Brus,,-82.93352281139194,8.724294526421653
CRI-000962,103115,SANTA ELENA,,CRI,Provincia Puntarenas,Coto Brus,,-82.94481733041414,8.932158685541877
CRI-000963,103117,CIUDADELA GONZALEZ,,CRI,Provincia Puntarenas,Corredores,Corredor,-82.93998762591625,8.645453455200538
CRI-000964,103118,FINCA NARANJO,,CRI,Provincia Puntarenas,Corredores,Laurel,-82.95705152162219,8.430491278651695
CRI-000965,103119,ALTO LAGUNA,,CRI,Provincia Puntarenas,Osa,BahÃ­a Drake,-83.51419815862424,8.608671353455907
CRI-000966,103120,LA PRIMAVERA,,CRI,Provincia Puntarenas,Coto Brus,,-82.91955833063533,8.799585621499471
CRI-000967,103133,LAUREL,,CRI,Provincia Puntarenas,Corredores,Laurel,-82.90468962489213,8.441793115057525
CRI-000968,103135,FINCA CAIMITO,,CRI,Provincia Puntarenas,Corredores,Laurel,-82.9346995341452,8.46564913904244
CRI-000969,103136,FINCA TAMARINDO,,CRI,Provincia Puntarenas,Corredores,Laurel,-82.94839253255837,8.454605410646234
CRI-000970,103139,LIDER COMTE,,CRI,Provincia Puntarenas,Golfito,PavÃ³n,-83.03942369993467,8.439909984970477
CRI-000971,103140,BELLA LUZ,,CRI,Provincia Puntarenas,Corredores,Laurel,-82.9862366357473,8.436422671903554
CRI-000972,103141,COPAL,,CRI,Provincia Puntarenas,Coto Brus,,-82.94994027624114,8.778479687138203
CRI-000973,103143,EL LABRADOR,,CRI,Provincia Puntarenas,Corredores,Laurel,-82.94325013182846,8.516875803709961
CRI-000974,103145,LA JULIETA,,CRI,Provincia Puntarenas,Golfito,GuaycarÃ¡,-83.1453228742703,8.708365629196605
CRI-000975,103150,COCORI,,CRI,Provincia Puntarenas,Coto Brus,,-83.02976124145937,8.949844254496034
CRI-000976,103152,RIO SALTO,,CRI,Provincia Puntarenas,Coto Brus,,-82.94917559667023,8.753288847252566
CRI-000977,103153,VEREH,,CRI,Provincia Puntarenas,Corredores,Laurel,-82.9344924005523,8.494379396989032
CRI-000978,103156,COLORADO,,CRI,Provincia Puntarenas,Corredores,Canoas,-82.9307728554486,8.537203552626197
CRI-000979,103160,PUNTA BANCO,,CRI,Provincia Puntarenas,Golfito,PavÃ³n,-83.13175778697743,8.352509094298195
CRI-000980,103163,LA SANSI,,CRI,Provincia Puntarenas,Coto Brus,,-83.06923518949715,8.96163046560736
CRI-000981,103171,DOS BRAZOS DE RIO TIGRE,,CRI,Provincia Puntarenas,Puerto Jimenez,Puerto JimÃ©nez,-83.40230038097725,8.52655684662666
CRI-000982,103174,CONCEPCION,,CRI,Provincia Puntarenas,Coto Brus,,-82.96541108889816,8.774333019647885
CRI-000983,103179,ELOY MORUA CARRILLO,,CRI,Provincia Puntarenas,Golfito,GuaycarÃ¡,-83.16461197363876,8.719748164678347
CRI-000984,103185,FILA DE MENDEZ,,CRI,Provincia Puntarenas,Coto Brus,,-82.96962678262199,8.915611126468844
CRI-000985,103187,LA FLORIDA,,CRI,Provincia Puntarenas,Golfito,Golfito,-83.09413309296421,8.555260904049907
CRI-000986,103192,JUAN LARA ALFARO,,CRI,Provincia Puntarenas,Corredores,La Cuesta,-82.84826642729699,8.491278247299386
CRI-000987,103193,EL PROGRESO,,CRI,Provincia Puntarenas,Golfito,PavÃ³n,-83.06234617960452,8.402708085243328
CRI-000988,103194,I.D.A. AGUJAS,,CRI,Provincia Puntarenas,Puerto Jimenez,Puerto JimÃ©nez,-83.3813957146793,8.56008146812652
CRI-000989,103195,KILOMETRO 16,,CRI,Provincia Puntarenas,Golfito,Golfito,-83.0564888847595,8.591889842091794
CRI-000990,103196,KILOMETRO 20,,CRI,Provincia Puntarenas,Golfito,Golfito,-83.06689154785141,8.622956158856644
CRI-000991,103198,KILOMETRO 29,,CRI,Provincia Puntarenas,Golfito,GuaycarÃ¡,-83.09957571426203,8.68728894255162
CRI-000992,103200,CONFRATERNIDAD,,CRI,Provincia Puntarenas,Corredores,Canoas,-82.84023000008247,8.548544697948518
CRI-000993,103201,LA FUENTE,,CRI,Provincia Puntarenas,Corredores,Corredor,-82.94743701946234,8.6407056909052
CRI-000994,103204,QUIABDO,,CRI,Provincia Puntarenas,Coto Brus,,-83.08161529388572,8.84651250130504
CRI-000995,103215,LA PENA,,CRI,Provincia Puntarenas,Golfito,PavÃ³n,-82.94525668853294,8.215177938398805
CRI-000996,103216,ADELE CLARINI,,CRI,Provincia Puntarenas,Coto Brus,,-82.97119064105657,8.868900380487068
CRI-000997,103228,ALTO DE COMTE,,CRI,Provincia Puntarenas,Corredores,PavÃ³n,-83.05532208401327,8.373206980782529
CRI-000998,103230,LIMONCITO,,CRI,Provincia Puntarenas,Coto Brus,,-83.01549790150465,8.829461628204276
CRI-000999,103231,LA VICTORIA,,CRI,Provincia Puntarenas,Coto Brus,,-83.01331796848226,8.820320806491774
CRI-001000,103234,LOURDES,,CRI,Provincia Puntarenas,Coto Brus,,-82.94169812633466,8.827648637845588
CRI-001001,103238,PASO CANOAS,,CRI,Provincia Puntarenas,Corredores,Canoas,-82.84214882242539,8.53345374019462
CRI-001002,103245,VILLA NUEVA,,CRI,Provincia Puntarenas,Golfito,GuaycarÃ¡,-83.00156189886332,8.601798466613886
CRI-001003,103248,LINDA VISTA,,CRI,Provincia Puntarenas,Golfito,GuaycarÃ¡,-83.02728778241067,8.742306021916374
CRI-001004,103250,PUERTO ESCONDIDO,,CRI,Provincia Puntarenas,Puerto Jimenez,Puerto JimÃ©nez,-83.46892533270452,8.666837004370676
CRI-001005,103262,COYOCHE,,CRI,Provincia Puntarenas,Corredores,Laurel,-82.97955554638067,8.447736366410616
CRI-001006,103264,ESTRELLA DEL SUR,,CRI,Provincia Puntarenas,Corredores,Corredor,-82.9587121831465,8.562824663968295
CRI-001007,103265,SAN JORGE,,CRI,Provincia Puntarenas,Corredores,Corredor,-82.9868861370186,8.701845030581387
CRI-001008,103266,TIGRITO,,CRI,Provincia Puntarenas,Golfito,PavÃ³n,-83.02233041926816,8.453473530896709
CRI-001009,103268,CANGREJO VERDE,,CRI,Provincia Puntarenas,Corredores,Laurel,-82.99227284871353,8.504885213977536
CRI-001010,103269,VISTA DEL MAR,,CRI,Provincia Puntarenas,Golfito,PavÃ³n,-83.11378916312266,8.346489009543347
CRI-001011,103275,SAN ANTONIO DE SABALITO,,CRI,Provincia Puntarenas,Coto Brus,,-82.91164932810675,8.778466515517891
CRI-001012,103279,SAN FRANCISCO,,CRI,Provincia Puntarenas,Coto Brus,,-82.94817266901538,8.762990395921534
CRI-001013,103280,SAN GERARDO,,CRI,Provincia Puntarenas,Coto Brus,,-83.06762570391277,8.859708269426232
CRI-001014,103282,SAN JOAQUIN,,CRI,Provincia Puntarenas,Coto Brus,,-82.95347207860642,8.824380568090778
CRI-001015,103284,LUIS WACHONG LEE,,CRI,Provincia Puntarenas,Coto Brus,,-82.86135846037794,8.875477270647782
CRI-001016,103286,SAN MIGUEL,,CRI,Provincia Puntarenas,Coto Brus,,-82.88257065388159,8.857917918712376
CRI-001017,103295,23 DE MAYO,,CRI,Provincia Puntarenas,Coto Brus,,-83.00782607664654,8.835366481198475
CRI-001018,103299,KILOMETRO UNO,,CRI,Provincia Puntarenas,Golfito,Golfito,-83.15739423823022,8.629846852383055
CRI-001019,103300,COTO 45,,CRI,Provincia Puntarenas,Corredores,Corredor,-82.94984555836305,8.593681385260169
CRI-001020,103301,CENTRAL COTO 47,,CRI,Provincia Puntarenas,Corredores,Corredor,-82.96682927128522,8.60129300869671
CRI-001021,103303,COTO 56-57,,CRI,Provincia Puntarenas,Golfito,GuaycarÃ¡,-83.0072274022796,8.645914459420181
CRI-001022,103305,COTO 54-55,,CRI,Provincia Puntarenas,Golfito,GuaycarÃ¡,-83.0061956489184,8.625948179650923
CRI-001023,103306,COTO 44,,CRI,Provincia Puntarenas,Corredores,Corredor,-82.96413450054888,8.577643667369033
CRI-001024,103307,SAN RAMON,,CRI,Provincia Puntarenas,Coto Brus,,-82.9208176229335,8.845448230437933
CRI-001025,103308,COTO 50-51,,CRI,Provincia Puntarenas,Corredores,Corredor,-82.97925677604294,8.606151688424799
CRI-001026,103309,COTO 42,,CRI,Provincia Puntarenas,Corredores,Corredor,-82.92799582987291,8.605261807046467
CRI-001027,103312,LAS JUNTAS,,CRI,Provincia Puntarenas,Coto Brus,,-82.94645011586297,8.852109041060743
CRI-001028,103314,SANTA CECILIA,,CRI,Provincia Puntarenas,Coto Brus,,-82.96398177338699,8.757248089370968
CRI-001029,103315,SANTA CONSTANZA,,CRI,Provincia Puntarenas,Coto Brus,,-82.96754122510688,8.85127575824598
CRI-001030,103318,SANTA ROSA,,CRI,Provincia Puntarenas,Coto Brus,,-82.91088491733933,8.791507884670471
CRI-001031,103321,SATURNINO CEDENO CEDENO,,CRI,Provincia Puntarenas,Puerto Jimenez,Puerto JimÃ©nez,-83.30614612582839,8.538477327418388
CRI-001032,103324,SAN MARCOS,,CRI,Provincia Puntarenas,Coto Brus,,-82.8940972615561,8.811603970184606
CRI-001033,103329,COOPA BUENA,,CRI,Provincia Puntarenas,Coto Brus,,-82.95023573547836,8.742285458377868
CRI-001034,103330,SANTA TERESITA,,CRI,Provincia Puntarenas,Coto Brus,,-82.93438360963538,8.811275712598594
CRI-001035,103342,I.D.A. AGROINDUSTRIAL,,CRI,Provincia Puntarenas,Golfito,Golfito,-83.03998263042419,8.609440187673783
CRI-001036,103344,SANTA RITA,,CRI,Provincia Puntarenas,Coto Brus,,-82.999239793288,8.82750709503932
CRI-001037,103346,PLAYA CACAO,,CRI,Provincia Puntarenas,Golfito,Golfito,-83.17724929619588,8.631612938557558
CRI-001038,103347,MIRAMAR,,CRI,Provincia Puntarenas,Corredores,Corredor,-82.8565471803497,8.633490647410136
CRI-001039,103354,LOS ANGELES,,CRI,Provincia Puntarenas,Golfito,GuaycarÃ¡,-83.07733663845615,8.682646974988234
CRI-001040,103359,SAN RAFAEL,,CRI,Provincia Puntarenas,Corredores,Corredor,-82.92725188200171,8.651120604067772
CRI-001041,103361,FILA NARANJO,,CRI,Provincia Puntarenas,Coto Brus,,-82.95445353105262,8.918461234004226
CRI-001042,103365,CARACOL DE LA VACA,,CRI,Provincia Puntarenas,Corredores,Laurel,-82.97283886936647,8.408180202642074
CRI-001043,103367,SAN FRANCISCO,,CRI,Provincia Puntarenas,Coto Brus,,-82.82295307702897,8.87055398939823
CRI-001044,103370,LA UNION,,CRI,Provincia Puntarenas,Golfito,GuaycarÃ¡,-83.1113002026177,8.724341920584202
CRI-001045,103373,FRAY CASIANO DE MADRID,,CRI,Provincia Puntarenas,Coto Brus,,-82.97206465281653,8.744841316418503
CRI-001046,103374,PUESTO LA PLAYA,,CRI,Provincia Puntarenas,Golfito,PavÃ³n,-82.89842146105048,8.092842186117851
CRI-001047,103381,ALTO COHEN,,CRI,Provincia LimÃ³n,Limon,Valle La Estrella,-83.14073002485907,9.678966151944575
CRI-001048,103386,BERNARDO DRUG INGERMAN,,CRI,Provincia LimÃ³n,Talamanca,Telire,-82.95428404671571,9.517970757341127
CRI-001049,103392,PATINO,,CRI,Provincia LimÃ³n,Talamanca,Cahuita,-82.80108091671241,9.647136447059488
CRI-001050,103414,BAMBU,,CRI,Provincia LimÃ³n,Talamanca,Bratsi,-82.8918325870092,9.557448344693285
CRI-001051,103445,KATSI,,CRI,Provincia LimÃ³n,Talamanca,Telire,-82.93623415431153,9.509588742948017
CRI-001052,103447,GAVILAN,,CRI,Provincia LimÃ³n,Limon,Valle La Estrella,-83.0684454299804,9.724931411197653
CRI-001053,103450,CHASE,,CRI,Provincia LimÃ³n,Talamanca,Bratsi,-82.86610806074461,9.602243382370057
CRI-001054,103452,SURETKA,,CRI,Provincia LimÃ³n,Talamanca,Bratsi,-82.93477310656237,9.56780613920104
CRI-001055,103455,SIBODI,,CRI,Provincia LimÃ³n,Talamanca,Telire,-83.01908632440329,9.54043718911247
CRI-001056,103457,MELERUK,,CRI,Provincia LimÃ³n,Talamanca,Bratsi,-82.92066688118416,9.598972346713243
CRI-001057,103458,SAN VICENTE,,CRI,Provincia LimÃ³n,Limon,Valle La Estrella,-83.0022809542435,9.615242132256832
CRI-001058,103466,COROMA,,CRI,Provincia LimÃ³n,Talamanca,Telire,-82.99239374861398,9.53717752727805
CRI-001059,103469,CALVERI,,CRI,Provincia LimÃ³n,Limon,Valle La Estrella,-83.09547504252595,9.732402542725195
CRI-001060,103470,DURURPE,,CRI,Provincia LimÃ³n,Talamanca,Telire,-82.93026967669852,9.53073906753936
CRI-001061,103499,BOCA COHEN,,CRI,Provincia LimÃ³n,Limon,Valle La Estrella,-83.10009323023255,9.72276382685459
CRI-001062,103522,ISLA COHEN,,CRI,Provincia LimÃ³n,Limon,Valle La Estrella,-83.11613133611773,9.690221212001632
CRI-001063,103523,JABUY KEKOLDY,,CRI,Provincia LimÃ³n,Limon,Valle La Estrella,-83.09391918526052,9.705451492544665
CRI-001064,103524,NAMALDI,,CRI,Provincia Cartago,Turrialba,ChirripÃ³,-83.32674067826268,9.97842183046624
CRI-001065,103559,MOJONCITO,,CRI,Provincia LimÃ³n,Talamanca,Telire,-83.03324053259325,9.567043349508115
CRI-001066,103584,CERERE,,CRI,Provincia LimÃ³n,Limon,Valle La Estrella,-83.04023392987482,9.702136669265249
CRI-001067,103589,SHIROLES,,CRI,Provincia LimÃ³n,Talamanca,Bratsi,-82.95477451062088,9.586102635055123
CRI-001068,103594,VESTA,,CRI,Provincia LimÃ³n,Limon,Valle La Estrella,-83.05635162085493,9.724954741009077
CRI-001069,103595,WATSI - VOLIO,,CRI,Provincia LimÃ³n,Talamanca,Bratsi,-82.87380090045909,9.626472027154778
CRI-001070,103596,RANCHO GRANDE,,CRI,Provincia LimÃ³n,Talamanca,Bratsi,-82.89047579276176,9.623580050971466
CRI-001071,103598,YORKIN,,CRI,Provincia LimÃ³n,,Telire,-82.86224809028215,9.518510562857745
CRI-001072,103787,LAGUNILLAS,,CRI,Provincia Puntarenas,Garabito,TÃ¡rcoles,-84.60326907319045,9.842684083845676
CRI-001073,103788,GUAPINOL NORTE,,CRI,Provincia Puntarenas,Parrita,,-84.4131418135357,9.573097611728311
CRI-001074,103789,EL CARMEN,,CRI,Provincia Puntarenas,Parrita,,-84.2086320967318,9.616599323610473
CRI-001075,103794,SAN MIGUEL,,CRI,Provincia Puntarenas,Parrita,,-84.21921513844534,9.529397915356489
CRI-001076,103798,INVU LA GUARIA,,CRI,Provincia Puntarenas,Parrita,,-84.34006630976187,9.520740104495689
CRI-001077,103802,CHIRES,,CRI,Provincia Puntarenas,Parrita,,-84.42548598598206,9.557671321887474
CRI-001078,103803,BAJAMAR,,CRI,Provincia Puntarenas,Garabito,TÃ¡rcoles,-84.66583142271733,9.83985503540476
CRI-001079,103804,CUARROS,,CRI,Provincia Puntarenas,Garabito,TÃ¡rcoles,-84.63743868332789,9.852333261319068
CRI-001080,103805,LA PALMA,,CRI,Provincia Puntarenas,Parrita,,-84.37648284711828,9.534483843485818
CRI-001081,103808,ESTERILLOS OESTE,,CRI,Provincia Puntarenas,Parrita,,-84.50108582686926,9.527835035233409
CRI-001082,103810,PALO SECO,,CRI,Provincia Puntarenas,Parrita,,-84.25938103273603,9.582370455781007
CRI-001083,103817,EL HIGUITO,,CRI,Provincia Puntarenas,Parrita,,-84.52287151161492,9.570081090902487
CRI-001084,103823,FINCA NICOYA,,CRI,Provincia Puntarenas,Parrita,,-84.30015885416248,9.554112219991584
CRI-001085,103824,HERRADURA,,CRI,Provincia Puntarenas,Garabito,JacÃ³,-84.63626985849119,9.66468316825017
CRI-001086,103825,ISLA PALO SECO,,CRI,Provincia Puntarenas,Parrita,,-84.30299146915881,9.48747405576026
CRI-001087,103826,CENTRAL DE JACO,,CRI,Provincia Puntarenas,Garabito,JacÃ³,-84.62461858940989,9.627704140382203
CRI-001088,103833,ISLA DAMAS N2,,CRI,Provincia Puntarenas,Parrita,,-84.19412156231122,9.453050458432271
CRI-001089,103842,PIRRIS,,CRI,Provincia Puntarenas,Parrita,,-84.32454615965355,9.619131306983016
CRI-001090,103845,POCHOTAL,,CRI,Provincia Puntarenas,Garabito,JacÃ³,-84.60653553189856,9.577509468708007
CRI-001091,103848,QUEBRADA AMARILLA,,CRI,Provincia Puntarenas,Garabito,JacÃ³,-84.55749496696436,9.573318568516855
CRI-001092,103849,QUEBRADA GANADO,,CRI,Provincia Puntarenas,Garabito,TÃ¡rcoles,-84.62761890457155,9.718008289009965
CRI-001093,103852,SAN ANTONIO,,CRI,Provincia Puntarenas,Parrita,,-84.20114055404,9.535954780453718
CRI-001094,103854,SAN JUAN,,CRI,Provincia Puntarenas,Parrita,,-84.24991475658753,9.602324377517244
CRI-001095,103860,FINCA POCARES,,CRI,Provincia Puntarenas,Parrita,,-84.24541040195552,9.523972816838222
CRI-001096,103863,SARDINAL SUR,,CRI,Provincia Puntarenas,Parrita,,-84.32412264776544,9.57262258945797
CRI-001097,103866,VISTA DE MAR,,CRI,Provincia Puntarenas,Parrita,,-84.47827259099648,9.548568845109967
CRI-001098,103868,QUEBRADA ARROYO,,CRI,Provincia San JosÃ©,Tarrazu,San Lorenzo,-84.00463502907749,9.45573262452747
CRI-001099,103869,PUEBLO NUEVO,,CRI,Provincia Puntarenas,Garabito,JacÃ³,-84.61966765787032,9.654367865675418
CRI-001100,103874,SAN PABLO,,CRI,Provincia Guanacaste,La Cruz,Santa Cecilia,-85.32836728379199,11.096759550412113
CRI-001101,103897,ARGENDORA,,CRI,Provincia Alajuela,La Cruz,Santa Cecilia,-85.35995680678326,11.019834869235027
CRI-001102,103968,SAN RAFAEL,,CRI,Provincia Guanacaste,La Cruz,Santa Cecilia,-85.2709538049881,11.026461286111084
CRI-001103,104000,BELICE,,CRI,Provincia Guanacaste,La Cruz,Santa Cecilia,-85.27749325017346,11.055301070194112
CRI-001104,104006,PIEDRAS AZULES,,CRI,Provincia Guanacaste,La Cruz,Santa Cecilia,-85.31873154053125,11.053378554128631
CRI-001105,104345,ARUBA,,CRI,Provincia San JosÃ©,Desamparados,San Juan de Dios,-84.0859810818244,9.883280341810208
CRI-001106,104346,DOMINGO FAUSTINO SARMIENTO,,CRI,Provincia San JosÃ©,Aserri,Salitrillos,-84.09181428559366,9.85419133841947
CRI-001107,104357,BAHAMAS,,CRI,Provincia Alajuela,San Carlos,Cutris,-84.42253544212015,10.481983719829188
CRI-001108,104361,SAN RAFAEL,,CRI,Provincia San JosÃ©,Dota,Santa MarÃ­a,-83.97307819189025,9.671530459104517
CRI-001109,104367,TSIMARI,,CRI,Provincia Cartago,Turrialba,ChirripÃ³,-83.59103126112711,9.705953326892315
CRI-001110,104371,SAN FRANCISCO,,CRI,Provincia Heredia,San Isidro,San Francisco,-84.07178574217983,10.005190095410592
CRI-001111,104373,LOS ANGELES,,CRI,Provincia Guanacaste,Bagaces,Mogote,-85.22145594458664,10.727720458692284
CRI-001112,104375,SAN ISIDRO,,CRI,Provincia Guanacaste,Hojancha,Monte Romo,-85.40215938877714,9.976540436619487
CRI-001113,104376,JOSE MARTIN CARRILLO CASTRILLO,,CRI,Provincia Guanacaste,Hojancha,Huacas,-85.36575819280039,10.022321935550451
CRI-001114,104377,MONTE ROMO,,CRI,Provincia Guanacaste,Hojancha,Monte Romo,-85.38143580238203,9.997302738786328
CRI-001115,104378,PUERTO CARRILLO,,CRI,Provincia Guanacaste,Hojancha,Puerto Carrillo,-85.47662736824162,9.864953321643146
CRI-001116,104379,LAJAS,,CRI,Provincia Guanacaste,Canas,San Miguel,-85.0608053905828,10.30628124603788
CRI-001117,104384,MANUEL MORA VALVERDE,,CRI,Provincia Puntarenas,Puntarenas,Barranca,-84.72479240385914,9.968095757812316
CRI-001118,104386,SAN PEDRO,,CRI,Provincia Puntarenas,Puntarenas,Paquera,-85.08346398953933,9.725034568990171
CRI-001119,104388,LA ESMERALDA,,CRI,Provincia Puntarenas,Coto Brus,,-82.83245887647831,8.882231716277674
CRI-001120,104389,CANA BLANCA,,CRI,Provincia Puntarenas,Golfito,PavÃ³n,-83.04036355233949,8.315278881958081
CRI-001121,104392,OROCHICO,,CRI,Provincia LimÃ³n,Talamanca,Telire,-83.07322703473365,9.586096101203115
CRI-001122,104397,PALMERA,,CRI,Provincia LimÃ³n,Matina,Matina,-83.29417360087179,9.96444836501496
CRI-001123,104398,POZO AZUL,,CRI,Provincia LimÃ³n,Matina,Matina,-83.27118833294706,9.939284887199562
CRI-001124,104399,SERINACH,,CRI,Provincia LimÃ³n,Matina,Matina,-83.28324447018448,9.94215907626319
CRI-001125,104408,SAN GERARDO,,CRI,Provincia Puntarenas,Parrita,,-84.32200930594037,9.6356507845164
CRI-001126,104409,REPUBLICA DE GUYANA,,CRI,Provincia Puntarenas,Garabito,TÃ¡rcoles,-84.6345342165935,9.776391742388219
CRI-001127,104483,SHUKEBACHARI,,CRI,Provincia LimÃ³n,Turrialba,ChirripÃ³,-83.39791618848832,9.7444175984686
CRI-001128,104484,SHORDI,,CRI,Provincia LimÃ³n,Limon,Valle La Estrella,-83.32348818459211,9.777635156627065
CRI-001129,104486,EL BARRO,,CRI,Provincia San JosÃ©,Turrubares,San Juan de Mata,-84.53343934113248,9.861130796731057
CRI-001130,104492,SANTA TERESITA,,CRI,Provincia Guanacaste,Nicoya,Nosara,-85.63370641648828,9.980660984225702
CRI-001131,104494,EL GUAPOTE,,CRI,Provincia Guanacaste,Santa Cruz,Veintisiete de Abril,-85.72461676629364,10.231112087854903
CRI-001132,104502,LA PRADERA,,CRI,Provincia Alajuela,Poas,Sabana Redonda,-84.20832665452913,10.128210910592466
CRI-001133,104503,CEBADILLA,,CRI,Provincia Alajuela,Orotina,Coyolar,-84.5958780508952,9.881600036485272
CRI-001134,104504,SAN JUAN DE DIOS HIGUITO,,CRI,Provincia Alajuela,San Mateo,San Mateo,-84.55948226079997,9.969106583202906
CRI-001135,104508,PLAYA GRANDE,,CRI,Provincia Guanacaste,Santa Cruz,Cabo Velas,-85.84530616134936,10.339855511127112
CRI-001136,104511,LA RIVIERA,,CRI,Provincia Puntarenas,Esparza,EspÃ­ritu Santo,-84.66470465173936,9.998075737636174
CRI-001137,104516,BRIS,,CRI,Provincia LimÃ³n,Talamanca,Telire,-82.89990026864709,9.518019603082438
CRI-001138,104536,LOS PLANCITOS,,CRI,Provincia Puntarenas,Corredores,Laurel,-83.01195560592413,8.3611772563646
CRI-001139,104541,CEDRAL ARRIBA,,CRI,Provincia San JosÃ©,Aserri,Tarbaca,-84.13413539301608,9.831645493219373
CRI-001140,104549,UKA TIPEY,,CRI,Provincia LimÃ³n,Limon,Valle La Estrella,-83.3440092188611,9.72213287594942
CRI-001141,104552,EL CHILE,,CRI,Provincia Guanacaste,Bagaces,Bagaces,-85.24653559735695,10.5429059264903
CRI-001142,104553,BAMBEL #1,,CRI,Provincia Puntarenas,Golfito,GuaycarÃ¡,-83.04893461554623,8.651498953091416
CRI-001143,104560,MRUSARA,,CRI,Provincia Puntarenas,Coto Brus,,-83.06092505094993,8.790790526799093
CRI-001144,104562,SAN FRANCISCO,,CRI,Provincia Alajuela,Los Chiles,El Amparo,-84.63040636906246,10.831594439040433
CRI-001145,104566,EL ROBLE,,CRI,Provincia Guanacaste,Tilaran,TilarÃ¡n,-84.93838654744089,10.497436138432704
CRI-001146,104567,SANTA MARTA,,CRI,Provincia San JosÃ©,Tarrazu,San Lorenzo,-84.02800508355459,9.630292976198369
CRI-001147,104597,TKAK-RI,,CRI,Provincia LimÃ³n,Limon,Valle La Estrella,-83.35624365022963,9.732452275334301
CRI-001148,104626,VIENTO FRESCO,,CRI,Provincia Alajuela,San Carlos,Aguas Zarcas,-84.32616142325446,10.376687976396937
CRI-001149,104630,SELIKO,,CRI,Provincia Cartago,Turrialba,ChirripÃ³,-83.48550721103344,9.723734330935082
CRI-001150,104632,BUKERI,,CRI,Provincia Cartago,Turrialba,ChirripÃ³,-83.47319739200674,9.953218181061846
CRI-001151,104634,TKANYAKA,,CRI,Provincia Cartago,Turrialba,ChirripÃ³,-83.39481832495717,9.77272668488025
CRI-001152,104635,CARRIZAL,,CRI,Provincia Puntarenas,Puntarenas,Chacarita,-84.7613126822435,9.98070265611896
CRI-001153,104636,MELERUK II,,CRI,Provincia LimÃ³n,Talamanca,Bratsi,-82.89493737890487,9.591302325601227
CRI-001154,104647,SANTA TERESITA,,CRI,Provincia Alajuela,Zarcero,Zarcero,-84.39527315268782,10.192211059911807
CRI-001155,104649,LOS ALPES,,CRI,Provincia Cartago,Jimenez,Juan ViÃ±as,-83.7373186777334,9.89546309788664
CRI-001156,104651,EL ESTABLO,,CRI,Provincia Puntarenas,Puntarenas,Pitahaya,-84.79746442576848,10.011510884973225
CRI-001157,104665,SUEBATA,,CRI,Provincia LimÃ³n,Limon,Valle La Estrella,-83.3795300199259,9.73129807442306
CRI-001158,104668,CHUMICO,,CRI,Provincia LimÃ³n,Matina,Matina,-83.30710357187664,9.97488874467453
CRI-001159,104684,MOLOTUBTA,,CRI,Provincia Puntarenas,Golfito,PavÃ³n,-82.9740661746311,8.243268650611292
CRI-001160,104687,JORGE ROSSI CHAVARRIA,,CRI,Provincia Cartago,Turrialba,Santa Teresita,-83.63148668251792,9.992172137401306
CRI-001161,104688,PUNTA DE LANZA,,CRI,Provincia Cartago,Matina,ChirripÃ³,-83.36416997073025,9.985255070661413
CRI-001162,104714,JAMARI TAWA,,CRI,Provincia LimÃ³n,Limon,Valle La Estrella,-83.36162236326845,9.764952607943746
CRI-001163,104726,JALA KICHA,,CRI,Provincia Cartago,Turrialba,ChirripÃ³,-83.43043158975905,9.680593967726116
CRI-001164,104727,EL PORTAL,,CRI,Provincia Guanacaste,Nicoya,BelÃ©n de Nosarita,-85.49669611422804,10.05061081999053
CRI-001165,104730,BARBUDAL,,CRI,Provincia Guanacaste,Abangares,Colorado,-85.10750971465666,10.202427698132512
CRI-001166,104732,LA COSTANERA,,CRI,Provincia Puntarenas,Parrita,,-84.38231067635317,9.534820228440552
CRI-001167,104735,LA TRANQUILIDAD,,CRI,Provincia Puntarenas,Puntarenas,CÃ³bano,-85.08770402367915,9.69581567352541
CRI-001168,104740,LA ISLITA,,CRI,,Puntarenas,,-84.86092378084861,10.001592946800502
CRI-001169,104761,SWAKBLI,,CRI,Provincia LimÃ³n,Talamanca,Telire,-83.03976846724485,9.524495446970187
CRI-001170,104774,LA QUEROGA,,CRI,Provincia Puntarenas,Puntarenas,Pitahaya,-84.79862568282199,10.074493222448671
CRI-001171,104781,WAWET,,CRI,Provincia LimÃ³n,Talamanca,Telire,-83.02877599492406,9.527124857799581
CRI-001172,104810,HUACAS,,CRI,Provincia Alajuela,San Carlos,Venecia,-84.27258643508205,10.401796752016558
CRI-001173,104820,CHORRERAS,,CRI,Provincia Alajuela,San Carlos,Cutris,-84.26808775073833,10.888772427915548
CRI-001174,104825,TAKLAK YAKA,,CRI,Provincia Cartago,Turrialba,ChirripÃ³,-83.42673659699345,9.876952536142747
CRI-001175,104831,CONVENTILLO,,CRI,Provincia Cartago,El Guarco,San Isidro,-83.94947481851584,9.798544334985598
CRI-001176,104838,GAMONALES,,CRI,Provincia Alajuela,San Carlos,Quesada,-84.42237953144863,10.313405687068396
CRI-001177,104931,SAN GERARDO,,CRI,Provincia Alajuela,Los Chiles,Los Chiles,-84.62097675919624,10.982490127609688
CRI-001178,104941,JONKRUHORA,,CRI,Provincia Puntarenas,Coto Brus,,-83.05022736013684,8.828719665889635
CRI-001179,104950,KUNABRI,,CRI,Provincia LimÃ³n,Limon,Valle La Estrella,-83.15300828074047,9.671030642676689
CRI-001180,104951,ARROZ ITARI,,CRI,Provincia LimÃ³n,Limon,Valle La Estrella,-83.14929814421157,9.679312788897782
CRI-001181,104952,BAJO COHEN,,CRI,Provincia LimÃ³n,Limon,Valle La Estrella,-83.12115050644907,9.713913764410428
CRI-001182,104953,NIMARI,,CRI,Provincia LimÃ³n,Limon,Valle La Estrella,-83.14115434155171,9.690249029535844
CRI-001183,104955,KUCHEY,,CRI,Provincia LimÃ³n,Limon,Valle La Estrella,-83.0857471792083,9.73694829453317
CRI-001184,104960,BLEITO,,CRI,Provincia LimÃ³n,Talamanca,Telire,-83.2488364704812,9.616697622574351
CRI-001185,104963,DUCHARI,,CRI,Provincia LimÃ³n,Limon,Valle La Estrella,-83.34166087586115,9.798739560590628
CRI-001186,104964,TAMIJU,,CRI,Provincia LimÃ³n,Limon,Valle La Estrella,-83.3238421018679,9.793165936327455
CRI-001187,104966,KSARABATA,,CRI,Provincia LimÃ³n,Limon,Valle La Estrella,-83.40580126569421,9.662756278841423
CRI-001188,105010,BLUJURINAK,,CRI,Provincia Cartago,Turrialba,ChirripÃ³,-83.50338383273828,9.781886473079215
CRI-001189,105017,JAPON,,CRI,Provincia San JosÃ©,Tarrazu,San Marcos,-84.02594378012209,9.671021402630739
CRI-001190,105022,PROGRESO,,CRI,Provincia LimÃ³n,Talamanca,Bratsi,-82.97904651435792,9.591887384100614
CRI-001191,105057,MOLLEJONES,,CRI,Provincia Alajuela,Orotina,Coyolar,-84.56632739313915,9.881344872387855
CRI-001192,101604,EL ACHIOTE,,CRI,Provincia Alajuela,San Carlos,Pocosol,-84.46504475620456,10.721527853424394
CRI-001193,102036,RIO BLANCO,,CRI,Provincia San JosÃ©,Dota,Copey,-83.88936802915583,9.646438160806111
CRI-001194,102821,SABALITO,,CRI,Provincia Guanacaste,Tilaran,Tierras Morenas,-84.99813979779452,10.560286224698883
CRI-001195,103556,SAN MIGUEL,,CRI,Provincia LimÃ³n,Limon,Valle La Estrella,-82.97316918505398,9.62537549714172
